AAXX 06001
24944 12997 50501 11419 21458 30054 40400 52004 69902 80001 333 21436
47032 55026=
AAXX 06001
24959 11994 80000 11351 21387 30193 40339 52004 69902 71022 80001 333
21382 47023 55000 93536=
AAXX 06001
24966 41998 80301 11298 21333 30079 40322 52003 77172 82037 333
55000=
AAXX 06001
25913 42999 10508 11109 21208 30072 40226 52006 80001 333 21109 55022
91012 91112=
AAXX 06001
29698 115// 81401 11055 21078 39803 40329 54000 69902 78582 889// 333
21065 47009 55011=
AAXX 06001
30054 11698 73202 11286 21317 30086 40353 52008 69902 77172 82545 333
21292 47065=
AAXX 06001
30230 115// 80000 11221 21246 39989 40345 52011 69942 78582 85931 333
21267 48042 55036=
AAXX 06001
30309 115// 60000 11113 21125 39794 40337 52005 69942 70282 84932 333
21118 47033 55000=
AAXX 06001
30372 12999 80000 11342 21382 39423 40421 52005 60002 86075 333 21409
47020 55062=
AAXX 06001
30521 115// 60000 11211 21234 39802 40371 52011 69952 70282 82901 333
21211 47037 55000=
AAXX 06001
30554 129// 20000 11374 21410 39169 40422 52007 60002 80001 333 21374
47009 55054=
AAXX 06001
30635 116// 51103 11187 21217 39721 40337 52011 69932 70182 82432 333
21200 47022=
AAXX 06001
30673 12999 23103 11186 21249 39342 40253 53002 60002 81041 333 21251
47012 55060=
AAXX 06001
30710 11570 53001 11052 21070 39748 40345 52013 60032 70282 85900 333
21064 47028 55025=
AAXX 06001
30758 11995 30000 11316 21352 39448 40379 52009 60002 70511 80001 333
21319 47018 55041=
AAXX 06001
30935 11697 82101 11105 21120 39345 40320 52004 69982 71572 83941 333
21124 47018 55000=
AAXX 06001
30965 12998 20501 11371 21407 39412 40371 57001 60002 80002 333 21372
47007 55055=
AAXX 06001
31004 11997 80000 11294 21325 39440 40374 52004 69902 77172 85037 333
21333 47066 55000=
AAXX 06001
31088 42599 73601 11065 21106 30209 40216 52013 87300 333 55000=
AAXX 06001
31168 41494 81706 11099 21113 30121 40131 52027 77573 8872/ 333 21099
55000 91118 95070=
AAXX 06001
31300 12999 80000 11243 21274 39844 40159 57001 60002 8005/ 333 21274
47024=
AAXX 06001
31329 11999 60601 11345 21377 39446 40202 53001 60012 70272 82032 333
21346 47038 55000=
AAXX 06001
31369 42999 00402 11304 21344 30124 40189 52028 333 21323=
AAXX 06001
31510 11927 82602 11211 21239 39933 40163 57009 69972 77072 8802/ 333
21237 47028=
AAXX 06001
31538 41999 80201 11300 21341 39710 40196 52005 70272 80001 333
21302=
AAXX 06001
31707 42599 82601 11272 21304 30089 40191 57002 8457/ 333 55076=
AAXX 06001
31735 42960 40701 11271 21311 30102 40198 52002 82031=
AAXX 06001
31873 42998 00000 11266 21294 30077 40218 52002 333 21282=
AAXX 06001
31909 42999 02803 11112 21198 30115 40185 52009 333 55073=
AAXX 06001
31959 42998 62503 11120 21189 30146 40182 52010 82084 333 21143
55044=
AAXX 06001
31960 42999 63409 11158 21213 39940 40193 52002 80005 333 55000 91013
91115=
AAXX 06001
32061 42998 01504 11201 21238 30163 40206 52020 333 55062 91005
91106=
AAXX 06001
32098 42998 23504 11229 21250 30202 40214 52010 81081 333 21251 55078
91005 91106=
AAXX 06001
32150 41596 83401 11109 21120 30155 40185 52003 78582 8597/ 333 55042
91002 91102=
AAXX 06001
32165 42599 614// 10017 21007 30152 40210 57006 86900 333 55048
91107=
AAXX 06001
32215 41597 82602 10008 21045 30133 40163 52015 78582 889// 333 21006
55000 91003 91108=
AAXX 06001
32389 42699 72802 11079 21092 30139 40177 52003 83531 333 21082
55000=
AAXX 06001
32477 41496 81402 11019 21025 30116 40149 52008 78582 889// 333
55000=
AAXX 06001
32594 82598 70000 10008 21062 30113 40148 52018 87500 333 55000=
AAXX 06001
32618 81495 80112 11023 21041 30057 40080 58007 78583 889// 333 21033
55000 91015 91121 92982=
AAXX 06001
36096 11997 40000 11287 21318 39628 40507 54000 60002 77600 82031 333
21288 47018 55011 95090=
AAXX 06000
44212 329// 01701 11342 21390 39301 40639 57001 333
21344 47015 55068 91203 555 31362=
AAXX 06000
44218 329// 01601 11278 21310 38718 40602 54001 333
21287 43007 91201 555 31317=
AAXX 06000
44231 329// 00000 11192 21224 38820 40488 52005 333
21192 43005 55058 91203 555 31276=
AAXX 06000
44239 329// 00000 11166 21200 38877 40428 52012 333
21173 43002 91203 555 31228=
AAXX 06000
44241 329// 01401 11267 21297 39352 40461 52011 333
21278 43012 91202 555 31309=
AAXX 06000
44259 32997 22704 11173 21202 39334 40315 52006 81041
333 21182 91205 555 31226=
AAXX 06000
44272 32999 01701 11215 21244 38307 40556 52001 333
21232 43003 55061 91203 555 31296=
AAXX 06000
44277 329// 02002 11195 21228 37878 40561 52001 333
21211 46001 91202 555 31248=
AAXX 06000
44282 32999 03302 11124 21176 38372 40448 52006 333
21129 91204 555 31194=
AAXX 06000
44288 32999 03604 11091 21165 38228 40359 53002 333
21110 91206 555 31158=
AAXX 06000
44292 318// 40000 11222 21250 38772 40445 52007 70400
84030 333 21224 47005 91201 55055 555 31292=
AAXX 06000
44341 329// 03308 11125 21168 38653 40385 53008 333
21175 42001 91209 555 31222=
AAXX 06000
44354 32999 23007 11127 21183 39161 40359 52003 80004
333 21131 91209 555 31154=
AAXX 06000
44373 32999 13203 11115 21173 38609 40429 52013 81040
333 21129 91204 555 31178=
AAXX  06001
45007 12964 10403 10157 20050 30195 40205 53015 60002
81030  333  20141 59002 70000 81365 =
AAXX 06001
47003 12980 80000 11062 21077 30177 40181 53008 69902 8803/ 222// 1//00 333 21080=
AAXX 06001
47005 01460 73601 11167 21187 38513 4//// 53005 60012 771// 87500 333 21189 69937=
AAXX 06001
47008 01550 80506 11014 21057 30109 40160 53004 69912 77072 885// 222// 1//01 333 21030 69917=
AAXX 06001
47014 12565 50000 11120 21130 39772 40197 53009 69922 85500 333 21130=
AAXX 06001
47016 01460 80000 11106 21117 39289 40181 53010 60012 77172 8802/ 333 21115 69957=
AAXX 06001
47020 12565 80000 11042 21078 39793 40258 52012 69942 884// 333 21060=
AAXX 06001
47022 32970 60000 11160 21171 38766 4//// 52010 80002 333 21165=
AAXX 06001
47025 01560 83202 11006 21027 30120 40150 57001 69912 77102 8802/ 222// 1//00 333 21034 69917=
AAXX 06001
47028 32970 00000 11069 21227 30121 40212 52016 333 21069=
AAXX 06001
47031 12570 60000 11156 21187 38850 4//// 52002 69902 86400 333 21160=
AAXX 06001
47035 32967 02703 11064 21147 30197 40205 52013 333 21064=
AAXX 06001
47037 11967 63203 11033 21054 30022 40149 52015 69912 70142 86030 333 21040=
AAXX 06001
47039 12560 80000 11049 21074 39973 40170 52008 60032 83402 333 21049=
AAXX 06001
47041 11505 80502 11032 21038 30101 40129 51006 69922 74442 884// 333 21038=
AAXX 06001
47046 32560 83202 11001 21038 30116 40139 53014 86402 222// 1//00 333 21029=
AAXX 06001
47050 11560 80000 11049 21067 3//// 4//// 5//// 60052 710// 885// 333 21053=
AAXX 06001
47052 12565 63202 11014 21033 39819 40163 52006 60032 86500 333 21015=
AAXX 06001
47055 32570 40000 11006 21038 30103 40150 52011 84500 333 21015=
AAXX 06001
47058 12760 83203 11016 21025 30129 40175 52014 69962 8803/ 333 21017=
AAXX 06001
47060 11757 83202 11018 21027 30110 40170 52004 69902 71022 8803/ 333 21019=
AAXX 06001
47061 32770 80000 10035 21033 30095 40131 57001 84031 222// 1//00 333 20025=
AAXX 06001
47065 02560 83204 11010 21030 30114 40181 53013 69912 884// 333 21015 69907=
AAXX 06001
47067 31530 82304 10010 21022 3//// 4//// 5//// 71022 884// 333 21010=
AAXX 06001
47068 11550 83205 11004 21038 30146 40185 52018 69982 71022 884// 333 21010=
AAXX 06001
47069 31735 83602 11004 21038 30073 40173 52020 71022 8803/ 333 21006=
AAXX 06001
47070 01550 80000 10012 20007 30081 40170 53007 69952 72162 885// 333 20004 69957=
AAXX 06001
47075 02580 80000 11002 21027 39721 40150 57020 69902 884// 333 21028 69907=
AAXX 06004
47090 16865 50502 10046 21014 30114 40136 58004 69902 333 20033
3/001=
AAXX 06004
47095 16916 70001 11001 21001 39971 40166 51006 69932 333 21012
3/000 4/006 69905=
AAXX 06004
47100 16447 72903 11020 21026 39228 40162 58001 60022 333 21031
3/102 4/008 60025=
AAXX 06004
47101 12926 60000 10004 20001 30060 40155 50006 60042 333 21001
3/101 4/009 69915=
AAXX 06004
47102 11559 63419 10012 21182 30134 40179 52020 69932 70522 86500
333 20009 3/001=
AAXX 06004
47104 11650 61802 10026 20015 30045 40139 58002 69962 72162 82530
333 20023 3/000 69945=
AAXX 06004
47105 16656 72503 10024 20012 30110 40144 50001 69972 333 20015
3/001 69975=
AAXX 06004
47106 16736 42702 10040 20025 30094 40144 50001 69952 333 20017
3/003 69955=
AAXX 06004
47108 11418 82704 10025 20017 30045 40152 52008 60032 72162 886//
333 20022 3/000 4/002 69905=
AAXX 06004
47112 11420 82905 10018 20012 30078 40164 52014 60032 71022 886//
333 20016 3/001 4////=
AAXX 06004
47114 16429 72501 10020 20011 39972 40159 53003 60022 333 20010
3/000 4//// 69925=
AAXX 06004
47115 32672 62307 10060 20018 39868 40137 57006 83530 333 20051
3/002 92033=
AAXX 06004
47119 11417 82302 10014 20011 30114 40164 52012 60022 72844 886//
333 20011 3/000 4////=
AAXX 06004
47121 16431 70000 11011 21013 39860 40161 54000 69982 333 21029
3/000 69985=
AAXX 06004
47127 16319 60001 10008 20000 30012 40156 55001 69902 333 21019
3/000 69905=
AAXX 06004
47129 16431 43206 10021 20018 30137 40169 52013 69912 333 21001
3/002=
AAXX 06004
47130 36959 52706 10047 20004 30080 40141 57007 333 20022 3/000=
AAXX 06004
47131 11215 72703 10029 20012 30087 40160 53005 69942 71061 87600
333 20013 3/002 69905=
AAXX 06004
47133 11618 63401 10027 20022 30077 40162 52008 69992 72162 84530
333 20021 3/001 69955=
AAXX 06004
47135 16910 51601 11014 21025 39857 40164 57002 60022 333 21028
3/101 69905=
AAXX 06004
47136 11543 80000 11015 21029 39994 40172 58006 60012 72272 8652/
333 21033 3/101 4//// 69965=
AAXX 06004
47138 32961 32706 10036 21004 30148 40153 50001 83030 333 20018
3/002 92022=
AAXX 06004
47140 16944 03202 10037 20022 30139 40174 52011 60042 333 20028
3/002 69905=
AAXX 06004
47143 31656 20000 11004 21021 30093 40162 50002 71072 82500 333
21024 3/101=
AAXX 06004
47146 11527 82707 10054 20032 30093 40168 52010 69972 71022 886//
333 20033 3/003 69925=
AAXX 06004
47152 31956 00503 10023 20005 30049 40150 58002 71000 333 20008
3/000=
AAXX 06004
47154 16943 00000 11006 21021 30105 40167 56001 69992 333 21029
3/102 69965=
AAXX 06004
47155 11956 63402 10030 20016 30114 40158 54000 69902 71022 86030
333 20011 3/001 92021=
AAXX 06004
47156 11201 90000 10010 20007 30091 40179 52011 69962 74564 333
20005 3/001=
AAXX 06004
47159 11959 02304 10074 20020 30065 40150 57005 69902 70500 333
20054 3/005 92022=
AAXX 06004
47162 16856 62902 10046 20044 30118 40157 57001 69902 333 20023
3/004=
AAXX 06004
47165 11641 73207 10058 20027 30124 40179 52012 69972 71062 87500
333 20040 3/004 69915 92023=
AAXX 06004
47168 11936 02505 10044 20030 30084 40166 51004 69912 72164 333
20021 3/003 69915 92022=
AAXX 06004
47169 12560 43220 10065 20003 30094 40187 52020 69902 84500 333
20063 3/006 69905 92045=
AAXX 06004
47170 36524 52907 10060 20041 30135 40179 52012 333 20020 3/004=
AAXX 06004
47184 11656 53210 10103 20013 30150 40175 52013 60042 70562 82530
333 20090 3/008 69905 92043=
AAXX 06004
47185 16550 53225 10101 20035 30088 40175 52011 69902 333 20099
3/007 69905=
AAXX 06004
47189 11657 63604 10105 20023 30111 40174 53003 69902 72162 86500
333 20080 3/007 69905 92022=
AAXX 06004
47192 16950 20000 11018 21030 30130 40167 56001 69902 333 21036
3/101=
AAXX 06004
47401 17/70 /0313 11011 21028 30145 40160 58006 60122 70070
  333 21032=
AAXX 06004
47402 17/70 /2405 11028 21045 30153 40164 57001 69952 70070 333
21083 555 19040=
AAXX 06004
47404 17/56 /0803 11002 21008 30138 40150 58003 69902 77170 333
21055 555 19065=
AAXX 06004
47405 17/19 /2305 11034 21042 30142 40162 57002 69902 77170 333
21118 555 19022=
AAXX 06004
47406 17/48 /1112 11029 21036 30117 40149 56008 69902 77170 333
21072 555 19033=
AAXX 06004
47407 17/14 /0401 11064 21071 39987 40168 58012 69902 77170
  333 21125=
AAXX 06004
47409 15/70 /1804 10009 21036 30117 40172 58015 60002
  333 21090=
AAXX 06004
47411 17/57 /0000 11004 21010 30108 40141 58008 60012 77170 333
21067 555 19037=
AAXX 06004
47412 17/19 /1203 11001 21005 30111 40144 56008 60022 77170
  333 21040=
AAXX 06004
47413 17/07 /0701 11033 21038 30090 40156 55005 60022 77270 333
21096 555 19131=
AAXX 06004
47417 17/70 /0102 11075 21103 30135 40192 56016 69902 70070 333
21141 555 19004=
AAXX 06004
47418 17/70 /0409 11042 21070 30141 40192 56013 69902 77170
  333 21119=
AAXX 06004
47420 15/70 /1511 10032 20001 30167 40201 58012 60002
  333 21071=
AAXX 06004
47421 17/70 /1508 10015 20008 30088 40132 58011 69902 76776
  333 21027=
AAXX 06004
47423 17/70 /1911 10046 20021 30076 40138 57004 60022 76176 333
21003 555 19002=
AAXX 06004
47424 17/62 /1712 10061 20031 30131 40141 57016 60022 76160 333
21042=
AAXX 06004
47426 17/70 /1114 10042 20024 30121 40169 55009 69902 70076
  333 21045=
AAXX 06004
47428 17/69 /1003 10024 20018 30119 40134 58003 60062 72360 333
21021 555 19014=
AAXX 06004
47430 17/66 /2111 10059 20038 30088 40142 56003 60052 76160
  333 21003=
AAXX 06004
47433 17/59 /0605 10006 20001 39907 40141 58003 60032 76776 333
21041 555 19154=
AAXX 06004
47435 15/70 /1901 11042 21090 30143 40166 55004 60002 333 21092
555 19014=
AAXX 06004
47440 17/70 /0403 11023 21037 30140 40184 58012 60022 72470 333
21072 555 19007=
AAXX 06004
47512 15/70 /3603 10027 21011 30143 40191 58005 60002 333 21017=
AAXX 06004
47520 17/16 /1904 11011 21012 30067 40196 58006 69902 71030 333
21015 555 19030=
AAXX 06004
47570 17/06 /0503 11034 21037 39945 40216 58004 60002 73430
  333 21041=
AAXX 06004
47574 17/26 /1710 10040 20033 30070 40154 53010 60152 76260 333
20029 555 19026=
AAXX 06004
47575 17/70 /2409 10040 20019 30157 40162 53001 69902 76176
  333 21042=
AAXX 06004
47576 17/63 /2107 10036 20015 30156 40162 53001 69902 76160 333
20010 555 19014=
AAXX 06004
47581 15/70 /3402 10015 21011 30131 40167 58006 60002 333 21041
555 19011=
AAXX 06004
47582 17/70 /1209 10044 20009 30142 40169 58004 60042 70096
  333 20010=
AAXX 06004
47584 17/03 /1904 11027 21028 30004 40202 50000 69902 73330
  333 21030=
AAXX 06004
47585 15/70 /2404 10042 21012 30123 40182 58007 60002 333 21023=
AAXX 06004
47587 15/70 /1308 10040 20002 30167 40173 58006 60052 333 20012=
AAXX 06004
47588 17/60 /0000 11018 21021 30007 40202 58006 69902 72030 333
21025 555 19003=
AAXX 06004
47590 15/70 /3204 10016 21010 30140 40195 58006 60002
  333 21009=
AAXX 06004
47592 15/70 /3307 11011 21028 30143 40198 58004 60002 333 21030=
AAXX 06004
47595 15/70 /2103 10012 21025 30118 40205 58006 60002 333 21024=
AAXX 06004
47597 15/70 /0000 10004 21037 39763 40205 58005 60002 333 21049=
AAXX 06004
47598 15/70 /3502 10007 21017 30188 40194 58003 60002 333 21013=
AAXX 06004
47600 17/70 /2308 10059 20024 30150 40158 55007 69902 76160
  333 20019=
AAXX 06004
47602 15/70 /1209 10090 20017 30155 40164 57007 69952 333 20058=
AAXX 06004
47604 15/70 /1806 10028 21006 30169 40176 58008 60022
  333 21001=
AAXX 06004
47605 17/70 /2310 10091 20029 30126 40167 55004 69902 76160
  333 20007=
AAXX 06004
47606 17/70 /2306 10064 20005 30158 40174 53001 69902 76160 333
20006=
AAXX 06004
47607 17/70 /1811 10089 20009 30152 40173 55001 69902 76160 333
20033=
AAXX 06004
47610 15/70 /0702 11006 21033 39685 40205 58007 60002
  333 21041=
AAXX 06004
47612 15/70 /1608 10082 21030 30146 40164 58012 60002 333 21018
555 19007=
AAXX 06004
47615 15/70 /2901 10000 21035 30029 40206 58003 60002 333 21028=
AAXX 06004
47616 17/67 /1507 10060 20042 30155 40177 58008 60012 76160 333
20019=
AAXX 06004
47617 17/32 /3601 11017 21027 39530 40222 56009 69902 77170 333
21037=
AAXX 06004
47618 15/70 /1709 10063 21063 39461 40188 55009 60002 333 21002=
AAXX 06004
47620 15/70 /1702 11004 21064 39301 40223 55008 60002 333 21028=
AAXX 06004
47622 15/70 /1301 10031 21080 39017 48476 57003 60002 333 21052=
AAXX 06004
47624 15/70 /3306 10034 21068 30063 40205 58005 60002
  333 20002=
AAXX 06004
47626 15/70 /2702 10008 21037 30163 40203 58006 60002 333 21015=
AAXX 06004
47629 15/70 /3402 10002 21019 30163 40202 58002 60002
  333 21019=
AAXX 06004
47631 17/70 /1609 10067 20037 30155 40170 58019 69952 76160 333
20059=
AAXX 06004
47632 17/70 /2304 10044 20021 30168 40190 58018 60012 76160 333
20019=
AAXX 06004
47636 17/70 /3203 10040 20020 30124 40194 56013 69902 76160
  333 20023=
AAXX 06004
47637 15/70 /1702 11005 21051 39574 40225 58014 60002 333 21019=
AAXX 06004
47638 15/70 /2402 10001 21038 39874 40226 58007 60002 333 21027=
AAXX 06004
47639 46/// ///// 11134 21144 36334=
AAXX 06004
47640 17/70 /2404 10071 21011 39175 48485 58008 69902 76160 333
21048=
AAXX 06004
47641 15/70 /3002 11022 21035 39917 40212 58007 60002 333 21045=
AAXX 06004
47648 15/70 /2802 10061 20005 30169 40204 58001 60002
  333 20042=
AAXX 06004
47649 17/70 /0903 10027 20018 39983 40183 58015 69952 72376 333
21006=
AAXX 06004
47651 17/70 /2803 10048 20018 30164 40187 58019 69902 72360
  333 20030=
AAXX 06004
47653 17/70 /3405 10057 20003 30177 40187 57017 69902 76160 333
20026=
AAXX 06004
47654 17/70 /0503 10079 20015 30131 40190 56012 69902 76160 333
20037=
AAXX 06004
47655 17/70 /0208 10102 20073 30129 40190 58012 69902 72360
  333 20063=
AAXX 06004
47656 17/70 /2903 10061 20022 30179 40199 56007 69902 76160 333
20035=
AAXX 06004
47657 17/70 /1302 10053 20027 30175 40202 58008 69902 76160 333
20015=
AAXX 06004
47662 12/70 70303 10051 21034 30174 40204 56007 60002 81272
  333 20015 70000=
AAXX 06004
47663 17/60 /3103 10085 20070 30151 40172 58021 69902 76160 333
20049=
AAXX 06004
47666 17/70 /0604 10122 20058 30124 40188 58012 69902 72360 333
20096=
AAXX 06004
47668 17/70 /1501 10088 20059 30114 40198 58005 69902 76160 333
20063=
AAXX 06004
47670 15/70 /0902 10069 21003 30149 40202 58008 60002 333 20037=
AAXX 06004
47672 17/70 /0802 10075 20050 30190 40199 58004 69902 72360 333
20052=
AAXX 06004
47674 17/70 /0302 10086 20050 30184 40201 58003 69902 72360 333
20051=
AAXX 06004
47675 17/70 /1303 10104 20092 30103 40195 58005 69902 76160
  333 20061=
AAXX 06004
47677 17/70 /1905 10148 20053 30142 40190 58010 69902 70060 333
20103=
AAXX 06004
47678 15/70 /1605 10123 20097 30018 40201 58005 60002
  333 20088=
AAXX 06004
47682 15/70 /1002 10046 21027 30196 40204 58006 60002 333 20029=
AAXX 06004
47684 17/70 /3402 10039 20023 30119 40190 58014 69902 76160 333
20007=
AAXX 06004
47690 15/70 /2406 10022 21079 38703 48483 52001 60002 333 21057
555 19002=
AAXX 06004
47740 17/64 /2403 10090 20075 30111 40145 58006 60032 76160
  333 20058=
AAXX 06004
47741 17/59 /1002 10063 20057 30127 40155 58004 60012 76160
  333 20049=
AAXX 06004
47742 17/70 /1101 10069 20051 30149 40154 58005 69952 76160 333
20056=
AAXX 06004
47744 17/70 /1808 10076 20042 30145 40155 58006 69952 76160 333
20072=
AAXX 06004
47746 17/69 /1405 10070 20050 30141 40161 58008 69902 76160
  333 20041=
AAXX 06004
47747 17/46 /1401 10031 20024 30158 40165 58014 60012 76160 333
20006=
AAXX 06004
47750 17/56 /1701 10038 20032 30165 40170 58013 60012 76160
  333 20008=
AAXX 06004
47754 17/63 /1904 10079 20075 30153 40158 56005 60042 76166 333
20071=
AAXX 06004
47755 17/70 /1810 10093 20059 30126 40151 58007 60022 76160 333
20074=
AAXX 06004
47756 17/16 /2402 10014 20011 30001 40186 56006 60052 76876 333
21004=
AAXX 06004
47759 17/59 /0204 10057 20032 30116 40181 56009 60032 76160 333
20035=
AAXX 06004
47761 17/62 /2802 10045 20038 30063 40178 58019 60032 76160 333
20022=
AAXX 06004
47762 17/59 /1001 10081 20074 30137 40161 56004 60042 76160 333
20072=
AAXX 06004
47765 17/60 /0106 10055 20032 30099 40166 58015 60082 76166
  333 20046=
AAXX 06004
47766 17/58 /0503 10064 20052 30155 40161 58017 60082 76166 333
20054=
AAXX 06004
47767 17/25 /0401 10048 20042 30168 40172 58008 60072 76166 333
20030=
AAXX 06004
47768 17/25 /3602 10041 20037 30165 40174 58009 60062 76266 333
20029=
AAXX 06004
47769 17/42 /0301 10047 20041 30121 40170 58015 60042 76160 333
20015=
AAXX 06004
47770 17/59 /0617 10069 20049 30134 40172 58010 60042 76160 333
20061=
AAXX 06004
47772 11/70 80108 10054 20034 30067 40170 58015 60042 76172 8177/
  333 20051 70035=
AAXX 06004
47776 17/28 /0804 10062 20058 30082 40169 56013 60092 76260 333
20022=
AAXX 06004
47777 17/50 /0303 10055 20045 30140 40163 56017 60052 76160 333
20052=
AAXX 06004
47778 17/60 /1315 10134 20116 30074 40157 58015 60032 76160
  333 20083=
AAXX 06004
47780 17/61 /3402 10037 20027 30044 40173 58015 60012 76160 333
20017=
AAXX 06004
47784 17/36 /0201 10058 20057 30135 40159 58010 60052 76160 333
20041=
AAXX 06004
47800 17/56 /1102 10070 20058 30156 40161 51001 69952 71060
  333 20056=
AAXX 06004
47805 17/64 /3103 10091 20077 30090 40161 50004 60122 70060 333
20077=
AAXX 06004
47807 17/38 /0901 10074 20070 30146 40164 52003 60102 76166
  333 20068=
AAXX 06004
47809 17/21 /1502 10064 20061 30117 40164 50001 60072 76160 333
20051=
AAXX 06004
47812 17/58 /0905 10077 20073 30158 40165 50006 60122 72360 333
20070=
AAXX 06004
47813 17/56 /2404 10074 20070 30127 40168 52007 60092 72360 333
20059=
AAXX 06004
47814 17/56 /0302 10058 20055 30064 40168 53003 60072 72360 333
20046=
AAXX 06004
47815 17/57 /2304 10078 20078 30141 40158 58006 60142 76166
  333 20060=
AAXX 06004
47817 17/50 /3603 10088 20077 30125 40169 53014 60102 76160
  333 20079=
AAXX 06004
47818 17/17 /3006 10057 20054 39360 40164 51007 60132 71060 333
20045=
AAXX 06004
47819 17/49 /0403 10074 20068 30115 40163 52005 60132 71060 333
20063=
AAXX 06004
47822 17/67 /2505 10083 20074 30121 40147 57005 60152 72360 333
20069=
AAXX 06004
47823 17/70 /0906 10093 20082 30111 40162 53007 60142 70060 333
20075=
AAXX 06004
47824 17/28 /2701 10062 20062 39987 40168 51010 60142 71063 333
20050=
AAXX 06004
47827 17/70 /3207 10115 20094 30118 40156 51013 60232 70060
  333 20097=
AAXX 06004
47829 17/50 /2202 10094 20090 39963 40151 50018 60222 72360 333
20076=
AAXX 06004
47830 17/60 /2905 10095 20089 30128 40146 53002 60122 70060
  333 20073=
AAXX 06004
47831 17/70 /3506 10123 20106 30116 40154 51014 60662 70060 333
20100=
AAXX 06004
47835 17/68 /2807 10119 20111 30124 40142 50007 60232 72360 333
20092=
AAXX 06004
47836 17/83 /3014 10145 20118 30104 40149 51019 60652 72360 333
20140=
AAXX 06004
47837 17/70 /2919 10148 20116 30102 40147 51016 60562 70060 333
20143=
AAXX 06004
47838 17/70 /0203 10099 20083 30143 40161 51007 60142 76160 333
20084=
AAXX 06004
47843 17/65 /3004 10107 20076 30134 40167 51006 60112 72360
  333 20076=
AAXX 06004
47887 17/56 /3501 10069 20062 30110 40152 58021 60112 76160
  333 20056=
AAXX 06004
47890 17/20 /1101 10056 20053 30163 40170 58006 60062 76260 333
20043=
AAXX 06004
47891 17/27 /0000 10058 20055 30160 40173 56006 60052 76160
  333 20038=
AAXX 06004
47892 17/61 /1305 10082 20076 30124 40142 56022 60122 76166 333
20072=
AAXX 06004
47893 17/50 /2904 10069 20065 30142 40148 58018 60102 76266
  333 20055=
AAXX 06004
47895 17/45 /0000 10057 20054 30160 40168 56012 60082 76166
  333 20049=
AAXX 06004
47897 17/50 /0606 10090 20081 30121 40134 58023 60132 76166 333
20076=
AAXX 06004
47898 17/57 /0315 10108 20097 30089 40130 58016 60172 76266 333
20103=
AAXX 06004
47899 17/56 /0417 10103 20102 39922 40146 58007 60122 76166 333
20092=
AAXX 06004
47909 17/70 ///// 10178 20123 30146 40170 53027 60322 72360
  333 20167=
AAXX 06004
47912 17/67 /0120 10182 20118 30162 40205 51028 69902 70060 333
20180=
AAXX 06004
47917 17/63 /0209 10180 20120 30191 40205 51030 60142 70060 333
20178=
AAXX 06004
47918 17/70 /3612 10185 20111 30182 40200 53030 60082 70060
  333 20178=
AAXX 06004
47927 17/70 /3616 10184 20117 30146 40194 53023 60062 70060
  333 20181=
AAXX 06004
47929 17/70 /3412 10181 20095 30175 40182 53015 60042 76160 333
20176=
AAXX 06004
47936 17/70 /3514 10192 20132 30149 40182 53020 60062 72360
  333 20171=
AAXX 06004
47940 17/70 /3409 10182 20133 30172 40181 53018 60092 72360 333
20166=
AAXX 06004
47942 17/82 /3412 10182 20127 30129 40164 51018 60052 72360 333
20168=
AAXX 06004
47945 17/70 /3218 10188 20175 30125 40149 53023 60332 76196
  333 20185=
AAXX 06004
47971 15/70 /0604 10200 20174 30194 40204 58005 60002
  333 20161=
AAXX 06004
47991 16/// /0616 10243 20185 30211 40221 50007 60002
  333 20225=
AAXX 06001
50527 04976 /1902 11302 21333 39413 40306 52002 60002 70000 333
11245 21310 3/116 4/018 54415 58010 60001 70000 90720 91106=
AAXX 06001
50557 04035 02501 11302 21338 39870 40214 57001 60002 70500 333
11251 21363 3/109 4/022 54406 59058 60001 70000 90720 91102=
AAXX 06001
50603 04980 /3304 11205 21235 39542 40288 52003 60002 70000 333
11186 21276 3/120 4/003 54407 58015 60001 79999 90720 91110=
AAXX 06001
50774 04028 01101 11289 21321 39841 40213 57008 69902 70570 333
11207 21332 3/108 4/021 54405 59051 60001 79999 90720 91102=
AAXX 06001
50953 04948 /2302 11217 21255 30056 40216 57004 60002 70500 333
11152 21260 3/110 54405 59019 60001 70000 90720 91103=
AAXX 06001
51076 04069 03400 11185 21207 39416 40377 52001 60002 70000 333
11060 21191 3/102 4/024 58031 60001 70000 90720 91102=
AAXX 06001
52203 04950 /0902 11118 21160 39386 40329 52008 60002 70500 333
10007 21140 3/117 58004 60001 70000 90720 91104=
AAXX 06001
52323 04980 /0301 11168 21193 38278 40402 52009 60002 70000 333
10028 21172 3/122 54415 58023 60001 70000 90720 91105=
AAXX 06001
52495 04980 /0401 11157 21215 38756 40389 52007 60002 70000 333
10008 21160 3/117 54415 58035 60001 70000 90720 91103=
AAXX 06001
52533 04980 /2702 11131 21166 38568 40339 52014 60002 70000 333
10034 21139 3/120 54415 58010 60001 70000 90720 91103=
AAXX 06001
52652 04980 /2902 11122 21151 38577 40330 52016 60002 70000 333
10053 21160 3/116 54405 58001 60001 70000 90720 91104=
AAXX 06001
52681 04975 /0502 11133 21185 38693 40342 52008 60002 70000 333
10043 21134 3/115 54417 58012 60001 70000 90720 91105=
AAXX 06001
52836 04980 /1901 11042 21181 36865 40192 57008 60002 70000 333
10027 21095 3/116 54405 59041 60001 70000 90720 91106=
AAXX 06001
52866 04959 /2802 11115 21147 37591 40307 57005 60002 70000 333
10035 21116 3/109 4/002 58004 60001 70000 90720 91110=
AAXX 06001
52983 04949 /1801 11128 21145 38139 40356 57003 60002 71000 333
10005 21130 3/116 54415 58000 60001 70000 90720 91103=
AAXX 06001
53068 04980 /2602 11156 21200 39130 40352 52002 60002 70000 333
11056 21169 3/120 54415 58084 60001 70000 90720 91107=
AAXX 06001
53336 04980 /2800 11157 21194 38786 40376 52004 60002 70000 333
11039 21158 3/119 54415 58052 60001 70000 90720 91108=
AAXX 06001
53463 04980 /3402 11145 21207 38942 40377 52007 60002 70000 333
11027 21155 3/117 54415 58081 60001 70000 90720 91108=
AAXX 06001
53502 04971 /2202 11150 21196 39089 40380 52006 60002 70000 333
10016 21152 3/119 54415 58039 60001 70000 90720 91103=
AAXX 06001
53513 04980 /1201 11141 21166 39072 40370 52009 60002 70000 333
10018 21141 3/117 54415 58052 60001 70000 90720 91102=
AAXX 06001
53529 04980 /3001 11173 21204 38693 40394 52005 60002 70000 333
10002 21176 3/120 54418 58051 60001 70000 90720 91104=
AAXX 06001
53543 04968 /0000 11115 21181 38595 40365 52008 60002 70000 333
11034 21118 3/117 54415 58063 60001 70000 90720 91105=
AAXX 06001
53564 04976 /0901 11160 21204 39083 40383 52010 60002 70000 333
10007 21161 3/120 54417 58080 60001 70000 90720 91105=
AAXX 06001
53614 04970 /3502 11078 21150 38993 40348 52004 60002 70000 333
10031 21085 3/115 54415 58052 60001 70000 90720 91103=
AAXX 06001
53772 04980 /3600 11111 21186 39375 40345 52014 60002 70000 333
10062 21116 3/116 54417 58089 60001 70000 90720 91107=
AAXX 06001
53798 04980 /1603 11001 21164 30075 40307 52019 60002 70000 333
10121 21010 3/109 54417 58117 60001 70000 90720 91106=
AAXX 06001
53845 04980 /0801 11131 21169 38922 40364 52009 60002 70000 333
10042 21131 3/113 54415 58060 60001 70000 90720 91104=
AAXX 06001
53915 04968 /2803 11085 21141 38594 40331 52005 60002 70000 333
10090 21085 3/112 54415 58037 60001 70000 90720 91104=
AAXX 06001
54012 04950 /2902 11154 21181 39022 40301 52006 69912 77000 333
11124 21251 3/114 4/004 54400 58036 69911 70001 90720 91110=
AAXX 06001
54094 04921 /1100 11215 21240 39812 40224 52005 60002 70500 333
11083 21223 3/107 54415 58000 60001 70000 90720 91103=
AAXX 06001
54102 04977 /2903 11139 21184 39041 40315 52004 69922 70000 333
11089 21220 3/112 4/004 54408 58053 69921 70002 90720 91106=
AAXX 06001
54135 04966 /2803 11174 21211 30001 40237 52004 60002 70000 333
11092 21190 3/121 54415 58020 60001 70000 90720 91104=
AAXX 06001
54161 04931 /1901 11183 21199 39916 40235 52002 60002 70500 333
11075 21212 3/112 54416 58024 60001 70000 90720 91105=
AAXX 06001
54218 04966 /0401 11127 21197 39429 40267 52001 60002 70000 333
11028 21139 3/120 54415 58052 60001 70000 90720 91106=
AAXX 06001
54292 04957 /2702 11112 21137 39862 40199 52009 69942 71000 333
11065 21143 3/112 54405 59012 69911 70009 90720 91104=
AAXX 06001
54337 04062 02502 11104 21146 30160 40248 57003 60002 70000 333
10004 21104 3/115 54415 58065 60001 70000 90720 91105=
AAXX 06001
54342 04957 /1301 11155 21173 30175 40244 52006 60002 70500 333
11002 21164 3/112 54413 58074 60001 70000 90720 91108=
AAXX 06001
54374 04950 /0201 11112 21120 39718 40210 52011 69922 71000 333
11047 21119 3/103 59006 60001 70005 90720 91102=
AAXX 06001
54401 04980 /2902 11105 21185 39357 40333 52007 60002 70000 333
11003 21109 3/115 54416 58098 60001 70000 90720 91106=
AAXX 06001
54423 04967 /1501 11109 21178 39746 40288 52009 60002 70000 333
10028 21120 3/116 54405 58077 60001 70000 90720 91107=
AAXX 06001
54497 04961 /3403 11067 21164 30190 40209 52019 60002 70000 333
10027 21071 3/110 54415 58028 60001 70000 90720 91112=
AAXX 06001
54511 04980 /0603 11007 21153 30243 40286 52010 60002 70000 333
10083 21033 3/110 54405 58107 60001 70000 90720 91108=
AAXX 06001
54539 04960 /2401 11051 21099 30255 40268 52013 60002 70000 333
10071 21058 3/110 54415 58096 60001 70000 90720 91107=
AAXX 06001
54602 04980 /2901 11065 21150 30274 40297 52016 60002 70000 333
10107 21074 3/108 54415 58115 60001 70000 90720 91112=
AAXX 06001
54662 04970 /3603 11053 21123 30132 40252 52017 60002 70000 333
10078 21056 3/106 54419 58075 60001 70000 90720 91114=
AAXX 06001
54776 04977 /3411 10006 21060 30167 40229 52023 60002 70000 333
10077 20000 3/102 54415 58034 60001 70000 90720 91119=
AAXX 06001
54823 04980 /0201 11015 21137 30081 40298 52022 60002 70000 333
10095 21020 3/106 54415 58102 60001 70000 90720 91109=
AAXX 06001
54857 04950 /3404 10000 21039 30164 40262 52020 60002 70500 333
10102 20000 3/103 54415 58062 60001 70000 90720 91108=
AAXX 06001
56033 04977 /0802 11133 21218 36015 40280 57002 60002 70000 333
10007 21221 3/120 54408 59029 60001 70000 90720 91104=
AAXX 06001
56046 04937 /3201 11151 21215 36263 40299 57002 60002 70500 333
10034 21226 3/121 54407 59036 60001 70000 90720 91103=
AAXX 06001
56080 04942 /2602 11131 21176 37142 40303 57007 60002 70000 333
10075 21187 3/117 54405 59020 60001 70000 90720 91103=
AAXX 06001
56096 04976 /3600 11008 21083 39007 40283 52010 60002 70000 333
10116 21017 3/107 54405 58000 60001 70000 90720 91104=
AAXX 06001
56172 04980 /0601 11072 21143 37374 40274 52009 60002 70000 333
10101 21099 3/109 54405 59043 60001 70000 90720 91102=
AAXX 06001
56187 04908 /3100 11001 21005 39578 40247 52007 60002 71000 333
10126 21008 3/101 5001/ 54405 59014 60001 70000 90720 91105=
AAXX 06001
56492 04962 /1401 10077 20052 39634 40237 52008 60002 70000 333
10134 20056 3/007 5000/ 54405 59005 60001 70000 90720 91106=
AAXX 06001
56691 04908 /2201 10009 20005 37779 40189 52008 60002 72800 333
10136 21027 3/103 5000/ 54405 59044 60001 70000 90720 91105=
AAXX 06001
57067 04966 /2901 11056 21104 39508 40321 52016 60002 70000 333
10132 21062 3/106 58057 60001 70000 90720 91107=
AAXX 06001
57083 04973 /0502 10027 21140 30168 40307 52023 60002 70000 333
10138 21001 3/102 54405 58092 60001 70000 90720 91111=
AAXX 06001
57127 04901 /1201 11029 21029 39665 40300 52016 60002 74600 333
10037 21032 3/104 5000/ 54415 59004 60001 70000 90720 91103=
AAXX 06001
57178 04967 /0201 10008 21098 30063 40291 52020 60002 70000 333
10149 21030 3/105 54405 58052 60001 70000 90720 91106=
AAXX 06001
57237 04957 /3201 10011 21005 39446 40262 52012 60002 70000 333
10136 20005 3/101 5000/ 59034 60001 70000 90720 91102=
AAXX 06001
57245 04960 /0301 11003 21003 39930 40295 52019 60002 70000 333
10101 21004 3/105 5001/ 54415 58005 60001 70000 90720 91104=
AAXX 06001
57290 04957 /3102 10014 21114 30160 40296 52027 60002 70000 333
10151 21012 3/105 54415 58065 60001 70000 90720 91105=
AAXX 06001
57297 04966 /2902 10026 21063 30138 40282 52019 60002 70000 333
10155 20023 3/102 54415 58043 60001 70000 90720 91104=
AAXX 06001
57328 04958 /0601 10058 20036 39816 40238 52015 60002 70000 333
10131 20041 3/002 5000/ 54405 59039 60001 70000 90720 91105=
AAXX 06001
57411 04917 /2801 10042 20038 39811 40237 52013 60002 71000 333
10119 20026 3/002 5001/ 54405 59027 60001 70000 90720 91103=
AAXX 06001
57447 04924 /2901 10038 20038 39725 40283 52018 60002 71000 333
10086 20031 3/002 5000/ 54415 59012 60001 70000 90720 91102=
AAXX 06001
57461 04961 /3101 10051 20038 39959 40276 52024 60002 70000 333
10167 20018 3/002 5000/ 54405 58017 60001 70000 90720 91106=
AAXX 06001
57494 04909 /0000 11011 21015 30242 40274 52015 60002 72800 333
10117 21015 3/101 5001/ 54415 58016 60001 70000 90720 91101=
AAXX 06001
57516 04841 /3101 10084 20057 39920 40236 52016 60002 70500 333
10157 20080 3/004 5000/ 59021 60001 70000 90720 91105=
AAXX 06001
57662 04932 /2702 10038 20025 30076 40264 52020 60002 70500 333
10150 20021 3/001 5000/ 54405 59002 60001 70000 90720 91107=
AAXX 06001
57799 04922 /0000 10044 20027 30176 40266 52015 60002 71000 333
10157 20040 3/002 5001/ 54415 58011 60001 70000 90720 91103=
AAXX 06001
57816 04959 /0703 10052 20002 38818 40220 52015 60002 70000 333
10152 20033 3/001 5001/ 54405 59031 60001 70000 90720 91106=
AAXX 06001
57957 04950 /0202 10088 20015 30030 40231 52012 60002 70500 333
10200 20088 3/004 5002/ 54415 59029 60001 70000 90720 91106=
AAXX 06001
57972 04956 /0101 10039 20011 39802 40254 52003 60002 71000 333
10130 20038 3/103 5000/ 54415 59021 60001 70000 90720 91104=
AAXX 06001
57993 04959 /0701 10041 20023 30087 40258 52016 60002 70000 333
10173 20037 3/001 5000/ 54415 58009 60001 70000 90720 91103=
AAXX 06001
58027 04958 /3402 10017 21071 30229 40282 52026 60002 70000 333
10123 21012 3/101 5001/ 54415 58071 60001 70000 90720 91106=
AAXX 06001
58040 04929 /2800 11014 21058 30260 40268 52022 60002 70500 333
10112 21016 3/105 5000/ 54415 58060 60001 70000 90720 91104=
AAXX 06001
58150 04950 /3303 10044 21025 30252 40256 52019 60002 70500 333
10132 20001 3/103 5001/ 54405 58036 60001 70000 90720 91109=
AAXX 06001
58203 04950 /0103 10003 21033 30238 40279 52023 60002 70500 333
10150 21012 3/105 54415 58049 60001 70000 90720 91105=
AAXX 06001
58238 04957 /3501 10033 21039 30226 40269 52027 60002 70000 333
10144 20031 3/104 5000/ 54415 58034 60001 70000 90720 91104=
AAXX 06001
58362 04950 /3002 10052 21006 30243 40254 52026 60002 70500 333
10125 20034 3/001 5000/ 54415 58014 60001 70000 90720 91105=
AAXX 06001
58424 04920 /2601 10016 20007 30190 40269 52021 60002 71000 333
10142 20010 3/102 54415 58025 60001 70000 90720 91106=
AAXX 06001
58457 04957 /3102 10073 20024 30208 40262 52029 60002 70000 333
10145 20041 3/100 5000/ 58018 60001 70000 90720 91104=
AAXX 06001
58527 04956 /0102 10020 20016 30153 40271 52021 60002 71000 333
10153 20017 3/100 5000/ 54415 58022 60001 70000 90720 91104=
AAXX 06001
58606 04932 /3600 10059 20045 30205 40265 52020 60002 71000 333
10149 20055 3/001 5000/ 54415 58015 60001 70000 90720 91102=
AAXX 06001
58633 04932 /2401 10042 20026 30162 40266 52022 60002 70500 333
10159 20028 3/001 5000/ 54415 58018 60001 70000 90720 91107=
AAXX 06001
58666 04932 /3104 10088 20076 30132 40243 52020 60002 70500 333
10108 20081 3/004 5000/ 54415 58009 60001 70012 90720 91109=
AAXX 06001
58725 04923 /2500 10017 20005 39813 40269 52024 60002 70500 333
10155 20017 3/102 5001/ 54415 58018 60001 70000 90720 91104=
AAXX 06001
58847 04961 /2902 10094 20059 30132 40236 52019 60002 70000 333
10206 20079 3/003 5000/ 54415 58013 60001 70000 90720 91104=
AAXX 06001
58968 45/// /0804 10168 20095 30185 40221 51021=
AAXX 06001
59023 04959 /2502 10081 20039 39907 40222 52017 60002 70000 333
10203 20081 3/005 5000/ 54415 59034 60001 70000 90720 91102=
AAXX 06001
59096 04963 /2701 10057 20019 39899 40245 52017 60002 70000 333
10206 20048 3/003 5000/ 54415 58002 60001 70000 90720 91109=
AAXX 06001
59134 04957 /1901 10125 20088 30047 40217 52018 60002 70000 333
10206 20112 3/007 5000/ 54415 58004 60001 70000 90720 91106=
AAXX 06001
59158 02962 03602 10161 20113 30091 40194 51013 60001 333 69902
70000=
AAXX 06001
59211 04956 /3601 10097 20089 39997 40209 52018 60002 70500 333
10224 20096 3/008 5000/ 54415 59041 60001 70000 90720 91103=
AAXX 06001
59265 04944 /0902 10095 20049 30081 40222 52019 60002 70500 333
10200 20080 3/006 5001/ 59012 60001 70000 90720 91104=
AAXX 06001
59287 04976 /3502 10094 20052 30130 40218 52016 60002 70000 333
10231 20085 3/005 5000/ 54415 59001 60001 70000 90720 91105=
AAXX 06001
59316 04968 /2201 10139 20047 30211 40215 52023 60002 70000 333
10227 20122 3/009 5001/ 54415 58004 60001 70000 90720 91102=
AAXX 06001
59358 45/// /0210 10161 20128 30155 40187 53012=
AAXX 06001
59431 04956 /0701 10098 20046 30022 40207 52017 60002 70500 333
10218 20098 3/009 5001/ 54415 59029 60001 70000 90720 91107=
AAXX 06001
59501 04973 /0602 10148 20044 30189 40211 52023 60002 70000 333
10222 20137 3/010 5001/ 54415 58002 60001 70000 90720 91105=
AAXX 06001
59559 02574 10413 10213 20169 30144 40172 52013 60001 81100 333
69902 70000=
AAXX 06001
59663 04960 /0404 10138 20051 30096 40206 52014 60002 70000 333
10230 20132 3/011 5002/ 54415 59006 60001 70000 90720 91107=
AAXX 06001
98134 11462 8//// 10200 20191 39964 40156 5//// 60264
78086 8587/ 333 20/// 56999 59019 70258 82818 83630
88357 555 20204 =
AAXX 06001
98223 11440 70903 10232 20218 40151 52027 60014 78081
83970 333 20215 55081 56990 58021 70010 81917 83618
87359 555 20010 =
AAXX 06001
98429 32560 30103 10269 20213 40124 52015 81130 333
20240 56990 59006 81825 83360=
