AAXX 05211
24944 42999 30602 11430 21470 30050 40398 52004 80001=
AAXX 05211
24959 41994 80000 11374 21412 30189 40337 57007 71022 80001=
AAXX 05211
24966 11998 81201 11292 21332 30076 40318 52001 69932 77172 82037 333
21315 47039=
AAXX 05211
25913 12999 00606 11101 21204 30066 40219 52015 60002 333 21104 48021
91112=
AAXX 05211
29698 425// 81501 11058 21080 39803 40329 52006 83971=
AAXX 05211
30054 42698 73002 11282 21321 30078 40348 52006 82545=
AAXX 05211
30230 415// 80000 11218 21243 39978 40333 52014 78582 86931=
AAXX 05211
30309 415// 70000 11100 21110 39789 40329 52011 70282 87900=
AAXX 05211
30372 42999 30000 11380 21425 39418 40433 52008 80001=
AAXX 05211
30521 415// 80000 11198 21218 39791 40357 52020 70282 85901=
AAXX 05211
30554 429// 20000 11367 21402 39162 40410 52003 80001=
AAXX 05211
30635 415// 61103 11177 21210 39710 40323 52009 70182 82935=
AAXX 05211
30673 42999 03203 11223 21275 39340 40265 57001=
AAXX 05211
30710 41567 82903 11028 21056 39735 40325 52019 78582 889//=
AAXX 05211
30758 41930 50901 11299 21333 39439 40362 52002 70522 82031=
AAXX 05211
30935 41997 82202 11090 21107 39341 40309 52006 77172 8802/=
AAXX 05211
30965 429// 00802 11357 21391 39413 40365 52002=
AAXX 05211
31004 41997 80000 11311 21343 39436 40377 52005 70272 85037=
AAXX 05211
31088 12599 83302 11061 21103 30195 40203 53010 60002 883// 333 21079
47011=
AAXX 05211
31168 11496 80206 11047 21061 30094 40104 57005 60042 77173 8872/ 333
21049 47062 91013 91118 95060=
AAXX 05211
31300 42/// /0000 11243 21273 39845 40160 57016=
AAXX 05211
31329 41999 80000 11315 21346 39445 40191 57006 70272 80005=
AAXX 05211
31369 12999 00301 11315 21356 30096 40162 52012 60002 333 21318
47036=
AAXX 05211
31510 41970 82802 11221 21254 39942 40173 57014 77172 80007=
AAXX 05211
31538 11998 20901 11287 21326 39705 40188 57010 69942 70272 80001 333
21288 47014=
AAXX 05211
31707 12998 42501 11306 21339 30091 40194 57013 60002 80001 333 21340
47020=
AAXX 05211
31735 12960 21401 11297 21339 30100 40197 57004 60002 80001 333
21301=
AAXX 05211
31873 12997 00000 11263 21286 30075 40216 57007 60002 333 21272
47011=
AAXX 05211
31909 12998 02703 11125 21193 30106 40177 57003 60002 333 21141
42002=
AAXX 05211
31959 12998 22502 11090 21214 30136 40171 57001 60002 82040 333 21127
41998=
AAXX 05211
31960 12998 83410 11170 21209 39938 40192 57009 60002 86025 333 21171
42002 91013 91115=
AAXX 05211
32061 12998 01504 11211 21244 30143 40186 52011 60002 333 21250 48027
91005 91105=
AAXX 05211
32098 12998 00102 11242 21260 30192 40205 52012 60002 333 21250 47051
91003 91104=
AAXX 05211
32150 11596 83401 11137 21150 30152 40183 52003 60012 78582 8691/ 333
21145 47016 91002 91102=
AAXX 05211
32165 12598 214// 10005 21037 30158 40216 57003 60002 82100 333 21062
48021 91107=
AAXX 05211
32215 11596 81701 10005 21027 30118 40148 52028 69962 78582 889// 333
20005 43042 91002 91107=
AAXX 05211
32389 12698 60701 11060 21083 30136 40174 52010 69902 83530 333 21062
47049=
AAXX 05211
32477 11496 80902 11027 21037 30108 40142 52020 69952 78582 889// 333
21065 43044=
AAXX 05211
32594 12599 50802 11019 21070 30095 40131 52028 69902 85500 333 21026
44011=
AAXX 05211
32618 11498 60210 11018 21034 30064 40086 52011 60012 72683 86500 333
21022 47002 91014 91118 92980=
AAXX 05211
36096 42997 30000 11274 21304 39628 40501 52003 82031 333 95090=
AAXX 05210
44212 329// 00000 11329 21376 39302 40632 52004 333
91203=
AAXX 05210
44218 329// 00000 11283 21316 38717 40604 52004 333
91202=
AAXX 05210
44231 329// 00000 11175 21213 38815 40469 52006 333
91203=
AAXX 05210
44239 329// 02803 11130 21173 38865 40392 51005 333
91204=
AAXX 05210
44241 329// 01001 11262 21292 39341 40447 52003 333
91202=
AAXX 05210
44259 32997 02804 11158 21191 39328 40303 55001 333
91204=
AAXX 05210
44272 32999 02501 11208 21235 38306 40547 52006 333
91204=
AAXX 05210
44277 329// 02601 11196 21229 37877 40562 52002 333
91201=
AAXX 05210
44282 32999 02702 11105 21168 38366 40424 52010 333
91203=
AAXX 05210
44288 32899 22702 11080 21161 38226 40351 58003 82030
333 91202=
AAXX 05210
44292 318// 30401 11214 21242 38765 40431 52005 70400
82044 333 91202=
AAXX 05210
44341 329// 03407 11126 21171 38645 40377 58002 333
91207=
AAXX 05210
44354 329// 02908 11122 21184 39158 40353 57003 333
91210=
AAXX 05210
44373 32999 03003 11105 21174 38596 40405 52002 333
91204=
AAXX  05211
45007 42867 10605 10153 20045 30180 40189 55002 81030
 333  59011 81358 =
AAXX 05211
47003 22980 80000 11062 21077 30169 40173 58011 8807/ 222// 1//00 333
69907=
AAXX 05211
47005 21460 83602 11144 21164 38508 4//// 57006 771// 885// 333
69967=
AAXX 05211
47008 22562 80504 11010 21041 30105 40155 58010 885// 222// 1//00 333
69907=
AAXX 05211
47014 22565 80000 11100 21104 39763 40185 58004 885// 333 69907=
AAXX 05211
47016 21760 80000 11100 21112 39279 40166 57005 771// 88010 333
69967=
AAXX 05211
47020 21565 83602 11034 21050 39781 40246 57005 72277 884// 333
69907=
AAXX 05211
47022 32470 80000 11144 21157 38759 4//// 54000 86502=
AAXX 05211
47025 32960 83602 11012 21038 30121 40151 57003 86502 222// 1//00=
AAXX 05211
47028 32962 83601 11052 21202 30105 40195 54000 8803/=
AAXX 05211
47031 21570 40000 11140 21164 38848 4//// 57024 72272 84400 333
69907=
AAXX 05211
47035 32958 03203 11057 21119 30184 40192 52005=
AAXX 05211
47037 31962 83202 11024 21033 30007 40133 54000 70242 86032=
AAXX 05211
47039 32560 80000 11026 21038 39965 40160 57008 884//=
AAXX 05211
47041 22970 00501 11023 21030 30095 40123 57015 333 69927=
AAXX 05211
47046 32760 80000 11003 21041 30124 40147 57008 8803/ 222// 1//00=
AAXX 05211
47050 31560 80000 11028 21041 3//// 4//// 5//// 71022 885//=
AAXX 05211
47052 22565 80000 11008 21022 39813 40157 57008 885// 333 69907=
AAXX 05211
47055 32770 50000 10002 21033 30092 40138 57013 85010=
AAXX 05211
47058 32560 83202 10002 21002 30115 40161 57010 884//=
AAXX 05211
47060 31556 82702 10002 21007 30106 40165 52002 71022 884//=
AAXX 05211
47061 32770 80000 10036 21033 30090 40132 57002 885// 222// 1//00=
AAXX 05211
47065 21560 80000 10004 21002 30101 40167 54000 77177 8802/ 333
69917=
AAXX 05211
47067 32550 80000 11004 21019 3//// 4//// 5//// 884//=
AAXX 05211
47068 22560 83204 10010 21019 30128 40166 53004 884// 333 69917=
AAXX 05211
47069 31535 80000 10026 20010 30053 40153 57002 71022 884//=
AAXX 05211
47070 32550 80000 10007 21004 30074 40162 57008 885//=
AAXX 05211
47075 21550 80000 11016 21050 39741 40173 56010 77077 8802/ 333
69907=
AAXX 05214
47090 36770 92703 10044 21027 30118 40140 56008=
AAXX 05214
47095 46912 62501 11009 21009 39964 40160 55009 333 4/006 69915=
AAXX 05214
47100 46409 90000 11025 21033 39228 40163 55010 333 4/002 69935=
AAXX 05214
47101 42908 60001 10000 21002 30054 40149 57013 333 4/009 60035=
AAXX 05214
47102 31556 63415 10020 21138 30114 40159 52006 70522 86500 333
69905=
AAXX 05214
47104 41556 82903 10029 20011 30047 40141 55008 76162 8672/ 333
69925=
AAXX 05214
47105 46561 93205 10042 20008 30109 40143 55012 333 69905=
AAXX 05214
47106 46559 92305 10028 21015 30092 40143 57015 333 69905=
AAXX 05214
47108 31314 83604 10022 20014 30037 40144 55007 71062 886// 333
4/002 60025=
AAXX 05214
47112 31618 32903 10020 20012 30064 40150 55008 71011 83500 333
4//// 60015=
AAXX 05214
47114 46320 90001 10014 20003 39969 40156 55005 333 4/001 60015=
AAXX 05214
47115 32677 22507 10055 20006 39873 40143 57012 82500=
AAXX 05214
47119 41317 70001 10015 20010 30102 40152 55001 72162 87600 333
4//// 60025=
AAXX 05214
47121 46314 91102 11022 21026 39859 40161 56014 333 4/001 60025=
AAXX 05214
47127 46921 92303 10002 21006 30013 40157 55002 333 69905=
AAXX 05214
47129 36504 51401 10012 20009 30124 40156 53002=
AAXX 05214
47130 36760 72505 10036 21004 30087 40148 57016=
AAXX 05214
47131 41622 80201 10018 20001 30081 40155 55004 76062 8352/ 333
69945=
AAXX 05214
47133 41516 83405 10022 20019 30069 40154 56007 76062 8652/ 333
69915=
AAXX 05214
47135 46415 60001 11009 21020 39860 40166 57011 333 60015=
AAXX 05214
47136 41558 80001 11019 21037 39999 40178 56009 77072 8652/ 333
69945=
AAXX 05214
47138 32962 02702 10019 21013 30147 40152 57014=
AAXX 05214
47140 36907 01104 10033 20027 30128 40163 56003 333 69935=
AAXX 05214
47143 32757 21402 11021 21033 30091 40160 57013 82500=
AAXX 05214
47146 31631 61603 10039 20030 30083 40158 55002 71022 86500=
AAXX 05214
47152 31956 01801 10014 21003 30050 40152 57013 71000=
AAXX 05214
47154 46627 92501 11010 21028 30106 40168 55013 333 69935=
AAXX 05214
47155 31938 02502 10013 20007 30114 40158 57014 71000=
AAXX 05214
47156 41516 72302 10010 20005 30080 40168 55007 72162 87500 333
69965=
AAXX 05214
47159 32963 02506 10057 20021 30069 40155 57015=
AAXX 05214
47162 36910 00502 10030 20027 30119 40158 57015=
AAXX 05214
47165 41956 82704 10053 20040 30112 40167 55002 72162 8802/ 333
69965=
AAXX 05214
47168 31920 02301 10032 20021 30080 40162 57013 71000=
AAXX 05214
47169 31546 83218 10081 20037 30075 40167 54000 70522 8452/=
AAXX 05214
47170 36900 /0001 10025 20022 30123 40167 56009=
AAXX 05214
47184 31661 73212 10111 20013 30137 40162 56010 70162 87500 333
69905=
AAXX 05214
47185 46663 72927 10110 20020 30078 40164 57010 333 69905=
AAXX 05214
47189 41661 82703 10093 20030 30108 40171 57008 76062 8652/ 333
69905=
AAXX 05214
47192 36956 20000 11033 21044 30130 40168 56013=
AAXX 05214
47401 47/70 /0509 11020 21045 30151 40166 55003 72470=
AAXX 05214
47402 47/70 /3103 11054 21062 30154 40165 55012 70070 555 19041=
AAXX 05214
47404 47/70 /1309 11004 21029 30141 40153 55003 72470 555 19064=
AAXX 05214
47405 45/70 /1803 11076 21087 30144 40165 56013 555 19021=
AAXX 05214
47406 47/70 /1115 11038 21055 30125 40157 56010 70070 555 19033=
AAXX 05214
47407 47/61 /2703 11085 21097 39999 40181 56010 77170=
AAXX 05214
47409 45/70 /1805 11039 21086 30132 40188 58008=
AAXX 05214
47411 45/70 /2403 11023 21043 30116 40150 56017 555 19035=
AAXX 05214
47412 47/61 /1106 11003 21011 30119 40152 56022 77170=
AAXX 05214
47413 47/70 /0305 11042 21057 30095 40161 56021 70070 555 19131=
AAXX 05214
47417 47/70 /2102 11112 21136 30151 40209 56012 77170 555 19004=
AAXX 05214
47418 45/70 /0312 11087 21125 30154 40206 56013=
AAXX 05214
47420 45/70 /1511 11003 21043 30179 40214 56005=
AAXX 05214
47421 47/63 /1606 10017 20004 30099 40143 56019 76776=
AAXX 05214
47423 47/63 /0609 10018 20009 30080 40142 58027 70076 555 19002=
AAXX 05214
47424 47/70 /1604 10037 20013 30147 40157 56020 76160=
AAXX 05214
47426 47/69 /1010 10032 20023 30130 40178 56013 72376=
AAXX 05214
47428 47/65 /2503 10019 20006 30122 40137 56024 76860 555 19016=
AAXX 05214
47430 47/70 /1407 10033 20015 30091 40146 58019 76160=
AAXX 05214
47433 47/70 /3102 11028 21039 39910 40147 57023 70070 555 19149=
AAXX 05214
47435 45/70 /2004 11054 21107 30147 40170 56011 555 19015=
AAXX 05214
47440 47/29 /3306 11053 21060 30152 40196 57011 72470 555 19007=
AAXX 05214
47512 45/70 /3205 10007 21015 30148 40197 57012=
AAXX 05214
47520 47/41 /1704 11008 21009 30073 40202 55014 72030 555 19031=
AAXX 05214
47570 47/02 /0302 11039 21042 39949 40221 55015 73333=
AAXX 05214
47574 47/64 /1812 10042 20030 30060 40144 56024 76160 555 19030=
AAXX 05214
47575 47/70 /2505 11011 21011 30156 40161 56017 77170=
AAXX 05214
47576 45/70 /2206 10021 21001 30155 40161 58018 555 19015=
AAXX 05214
47581 45/70 /3002 10008 21013 30137 40173 56019 555 19011=
AAXX 05214
47582 47/70 /1209 10023 20011 30146 40173 56019 72396=
AAXX 05214
47584 47/01 /1603 11021 21022 30004 40201 56014 73430=
AAXX 05214
47585 45/70 /2603 11005 21022 30130 40190 56016=
AAXX 05214
47587 45/70 /1410 10019 20000 30173 40179 56017=
AAXX 05214
47588 47/01 /0901 11018 21019 30013 40208 55013 73333 555 19003=
AAXX 05214
47590 45/70 /3208 11002 21018 30146 40202 55011=
AAXX 05214
47592 45/70 /3408 11027 21038 30147 40202 56011=
AAXX 05214
47595 45/70 /1802 11022 21038 30124 40213 56012=
AAXX 05214
47597 45/70 /2805 11047 21056 39768 40219 56012=
AAXX 05214
47598 45/70 /3409 11009 21025 30191 40198 56016=
AAXX 05214
47600 45/70 /2209 10023 20005 30157 40165 56013=
AAXX 05214
47602 45/70 /1110 10070 20015 30162 40171 56014=
AAXX 05214
47604 45/70 /1904 10001 21015 30177 40184 56017=
AAXX 05214
47605 45/70 /2004 10019 21005 30130 40172 55012=
AAXX 05214
47606 45/70 /2205 10058 21023 30157 40173 56013=
AAXX 05214
47607 45/70 /1913 10083 21035 30153 40174 56013=
AAXX 05214
47610 45/70 /0401 11038 21048 39692 40219 56012=
AAXX 05214
47612 45/70 /1909 10054 21042 30158 40176 56018 555 19007=
AAXX 05214
47615 45/70 /3606 11022 21042 30032 40210 56012=
AAXX 05214
47616 45/70 /2005 10030 20002 30163 40185 56013=
AAXX 05214
47617 45/70 /0201 11029 21037 39539 40235 56010=
AAXX 05214
47618 45/70 /1510 10047 21071 39470 40203 56007=
AAXX 05214
47620 45/70 /1203 11023 21074 39309 40239 56005=
AAXX 05214
47622 45/70 /2404 10007 21096 39020 48474 56011=
AAXX 05214
47624 45/70 /3305 10008 21063 30068 40211 55011=
AAXX 05214
47626 45/70 /2602 11009 21046 30169 40210 55012=
AAXX 05214
47629 45/70 /2202 11006 21026 30165 40204 56012=
AAXX 05214
47631 45/70 /1309 10070 21004 30174 40189 55012=
AAXX 05214
47632 47/70 /3603 10043 21015 30186 40208 56017 76760=
AAXX 05214
47636 47/70 /3403 10035 21011 30137 40208 56011 76760=
AAXX 05214
47637 45/70 /2602 11011 21051 39588 40241 55005=
AAXX 05214
47638 45/70 /0702 11021 21046 39881 40236 55003=
AAXX 05214
47639 46/// ///// 11161 21174 36332=
AAXX 05214
47640 45/70 /3003 11005 21077 39183 48474 55005=
AAXX 05214
47641 45/70 /2103 11041 21050 39924 40221 56012=
AAXX 05214
47648 45/70 /2004 10077 21005 30170 40205 55014=
AAXX 05214
47649 47/70 /0000 10009 21007 39998 40200 58014 77170=
AAXX 05214
47651 47/70 /2602 10039 20006 30183 40206 57011 76160=
AAXX 05214
47653 45/70 /3503 10054 20004 30194 40204 56008=
AAXX 05214
47654 45/70 /0305 10060 20004 30143 40202 55014=
AAXX 05214
47655 45/70 /0305 10096 20052 30141 40203 55010=
AAXX 05214
47656 45/70 /0101 10056 21040 30186 40206 55009=
AAXX 05214
47657 45/70 /3502 10021 21001 30183 40211 55005=
AAXX 05214
47662 42975 43101 10018 21033 30181 40212 55007 80002=
AAXX 05214
47663 47/70 /2901 10067 20042 30172 40193 56014 76160=
AAXX 05214
47666 45/70 /3002 10110 20038 30136 40201 55006=
AAXX 05214
47668 45/70 /2202 10081 20019 30119 40203 55005=
AAXX 05214
47670 45/70 /3604 10041 21021 30157 40210 55005=
AAXX 05214
47672 47/70 /1005 10059 20036 30194 40203 56007 76160=
AAXX 05214
47674 47/70 /0102 10057 20022 30187 40204 56011 76160=
AAXX 05214
47675 47/70 /1505 10076 20058 30108 40201 56009 72360=
AAXX 05214
47677 47/70 /1905 10136 20050 30152 40200 55008 70060=
AAXX 05214
47678 45/70 /1906 10127 20067 30023 40206 55012=
AAXX 05214
47682 45/70 /3404 10032 21040 30202 40210 56007=
AAXX 05214
47684 47/70 /3501 10026 20007 30133 40205 56012 76760=
AAXX 05214
47690 45/70 /2609 11036 21057 38702 48478 56012 555 19003=
AAXX 05214
47740 47/70 /2314 10098 20058 30117 40151 58014 76160=
AAXX 05214
47741 47/63 /0902 10054 20047 30131 40159 58020 76166=
AAXX 05214
47742 47/70 /0101 10057 20042 30154 40159 58019 76160=
AAXX 05214
47744 47/70 /2004 10076 20029 30151 40161 58019 76160=
AAXX 05214
47746 47/70 /1508 10082 20020 30149 40169 58015 76160=
AAXX 05214
47747 47/66 /1201 10022 20009 30172 40179 56013 76760=
AAXX 05214
47750 47/63 /1903 10035 20025 30178 40183 56011 76160=
AAXX 05214
47754 47/63 /1804 10075 20071 30158 40163 56016 76166=
AAXX 05214
47755 47/70 /2305 10080 20065 30133 40159 56018 76166=
AAXX 05214
47756 47/20 /3501 10003 21002 30007 40193 58013 77170=
AAXX 05214
47759 47/70 /3003 10051 20012 30125 40190 56011 76160=
AAXX 05214
47761 47/70 /1103 10036 20015 30082 40198 56010 76160=
AAXX 05214
47762 47/58 /0904 10077 20070 30141 40165 56020 76166=
AAXX 05214
47765 47/57 /0403 10049 20026 30114 40181 56013 76166=
AAXX 05214
47766 47/56 /0502 10058 20048 30172 40178 56012 76166=
AAXX 05214
47767 47/57 /0301 10043 20033 30176 40180 55016 76166=
AAXX 05214
47768 47/58 /0301 10037 20025 30174 40183 56017 76166=
AAXX 05214
47769 47/60 /1102 10030 20018 30136 40186 56015 76160=
AAXX 05214
47770 47/70 /0615 10070 20021 30144 40182 56014 76160=
AAXX 05214
47772 41/70 83604 10056 20013 30082 40185 56015 76172 8277/=
AAXX 05214
47776 47/48 /0706 10064 20054 30095 40182 56016 76160=
AAXX 05214
47777 47/66 /0607 10060 20017 30157 40180 56014 76160=
AAXX 05214
47778 47/70 /0508 10109 20070 30089 40173 58022 72360=
AAXX 05214
47780 47/68 /3001 10032 20016 30059 40188 58015 76160=
AAXX 05214
47784 47/22 /0901 10050 20049 30145 40169 56020 76166=
AAXX 05214
47800 47/61 /3107 10080 20050 30155 40160 56014 70060=
AAXX 05214
47805 47/69 /2102 10082 20078 30086 40158 56014 76160=
AAXX 05214
47807 47/58 /1403 10069 20060 30143 40162 56022 76166=
AAXX 05214
47809 47/25 /0000 10057 20054 30116 40163 56021 76166=
AAXX 05214
47812 47/59 /0803 10072 20069 30152 40159 56016 72360=
AAXX 05214
47813 47/21 /0203 10061 20060 30120 40161 56023 76166=
AAXX 05214
47814 47/50 /2801 10049 20048 30061 40165 56028 76166=
AAXX 05214
47815 47/38 /1604 10065 20065 30147 40164 56020 76266=
AAXX 05214
47817 47/66 /0902 10081 20072 30111 40155 56018 72360=
AAXX 05214
47818 47/57 /3006 10053 20049 39353 40158 56022 72360=
AAXX 05214
47819 47/34 /0702 10066 20060 30110 40158 56029 76166=
AAXX 05214
47822 47/56 /2701 10073 20067 30126 40152 56026 76166=
AAXX 05214
47823 47/57 /0807 10084 20081 30104 40156 56012 72360=
AAXX 05214
47824 47/16 /1302 10055 20055 39977 40158 56026 76166=
AAXX 05214
47827 47/64 /3009 10107 20098 30105 40143 55014 76166=
AAXX 05214
47829 47/34 /0104 10083 20080 39945 40134 57033 76266=
AAXX 05214
47830 47/31 /2402 10080 20076 30126 40144 58025 76166=
AAXX 05214
47831 47/70 /3311 10113 20107 30102 40140 55009 72360=
AAXX 05214
47835 47/63 /3303 10103 20097 30117 40135 56024 76166=
AAXX 05214
47836 47/84 /3113 10150 20132 30085 40130 55005 72360=
AAXX 05214
47837 47/70 /3104 10149 20146 30086 40131 55008 76166=
AAXX 05214
47838 47/70 /0707 10089 20081 30136 40154 56017 72360=
AAXX 05214
47843 47/58 /3403 10076 20073 30128 40161 55012 76160=
AAXX 05214
47887 47/43 /0401 10068 20059 30131 40173 56014 76260=
AAXX 05214
47890 47/65 /1402 10050 20030 30169 40176 56020 76160=
AAXX 05214
47891 47/68 /0000 10045 20030 30166 40179 56017 76160=
AAXX 05214
47892 47/50 /1405 10077 20071 30146 40164 56016 76266=
AAXX 05214
47893 47/61 /2408 10066 20060 30160 40166 56030 76166=
AAXX 05214
47895 47/58 /3103 10052 20032 30172 40180 56016 76166=
AAXX 05214
47897 47/50 /3503 10085 20076 30144 40157 56021 76166=
AAXX 05214
47898 47/56 /0213 10104 20092 30105 40146 56029 76266=
AAXX 05214
47899 47/56 /0323 10097 20091 39929 40154 56033 76166=
AAXX 05214
47909 47/70 /1616 10183 20144 30119 40143 53001 76160=
AAXX 05214
47912 47/70 /3621 10184 20131 30134 40177 53001 72360=
AAXX 05214
47917 47/66 /0210 10184 20137 30161 40175 51004 72360=
AAXX 05214
47918 47/70 /0113 10188 20137 30152 40169 50002 72360=
AAXX 05214
47927 47/70 /3615 10189 20148 30123 40170 53005 76160=
AAXX 05214
47929 47/70 /3212 10183 20132 30160 40167 53008 76160=
AAXX 05214
47936 47/70 /3513 10189 20154 30129 40161 53008 76160=
AAXX 05214
47940 47/70 /3306 10180 20149 30154 40163 53005 76160=
AAXX 05214
47942 47/78 /3317 10185 20148 30111 40145 56004 72360=
AAXX 05214
47945 47/33 /1622 10211 20196 30102 40126 55010 76260=
AAXX 05214
47971 45/70 /0203 10178 20145 30199 40209 55002=
AAXX 05214
47991 46/// /0615 10231 20180 30204 40214 53013=
AAXX 05211
50527 04979 /1702 11307 21338 39411 40303 57008 60002 700// 333
11245 21309 3/116 4/018 54415 58022 60001 70000 90720 91106=
AAXX 05211
50557 04947 /2501 11296 21330 39871 40213 57009 60002 705// 333
11251 21377 3/109 54407 59054 60001 70000 90720 91102=
AAXX 05211
50603 04980 /3307 11204 21235 39539 40283 57004 60002 700// 333
11186 21276 3/120 4/003 54405 58030 60001 70000 90720 91109=
AAXX 05211
50774 04958 /3600 11294 21328 39849 40219 57012 60002 700// 333
11207 21339 3/108 54405 59030 60001 70000 90720 91102=
AAXX 05211
50953 04958 /2402 11249 21285 30060 40220 57014 60002 700// 333
11152 21265 3/110 54405 59005 60001 70000 90720 91105=
AAXX 05211
51076 04961 /0801 11180 21199 39415 40368 52002 60002 700// 333
11060 21185 3/102 4/024 54415 58031 60001 70000 90720 91102=
AAXX 05211
52203 04947 /1001 11135 21170 39378 40313 52003 60002 705// 333
10007 21140 3/117 54415 58003 60001 70000 90720 91104=
AAXX 05211
52323 04980 /0301 11146 21176 38269 40346 52002 60002 700// 333
10028 21157 3/121 54415 58019 60001 70000 90720 91107=
AAXX 05211
52495 04980 /2701 11153 21211 38749 40355 57005 60002 700// 333
10008 21158 3/117 54417 58040 60001 70000 90720 91103=
AAXX 05211
52533 04971 /3102 11124 21169 38554 40300 57005 60002 700// 333
10034 21127 3/119 54415 58006 60001 70000 90720 91107=
AAXX 05211
52652 04980 /2002 11141 21165 38561 40288 57009 60002 700// 333
10053 21160 3/115 54415 59005 60001 70000 90720 91104=
AAXX 05211
52681 04979 /0701 11098 21163 38685 40306 57010 60002 700// 333
10043 21099 3/114 54415 58015 60001 70000 90720 91105=
AAXX 05211
52836 04980 /1402 11048 21186 36873 40152 57010 60002 700// 333
10027 21098 3/116 54405 59034 60001 70000 90720 91107=
AAXX 05211
52866 04957 /0801 11109 21135 37596 40277 57007 60002 710// 333
10035 21114 3/108 4/002 54415 58012 60001 70000 90720 91110=
AAXX 05211
52983 04950 /1601 11112 21132 38142 40329 57005 60002 710// 333
10005 21118 3/115 54415 58013 60001 70000 90720 91103=
AAXX 05211
53068 04980 /3201 11163 21199 39128 40343 57002 60002 700// 333
11056 21169 3/119 54415 58102 60001 70000 90720 91111=
AAXX 05211
53336 04980 /0201 11137 21183 38782 40357 54000 60002 700// 333
11039 21146 3/118 54415 58070 60001 70000 90720 91109=
AAXX 05211
53463 04980 /0201 11130 21204 38935 40359 57001 60002 700// 333
11027 21134 3/117 54417 58092 60001 70000 90720 91111=
AAXX 05211
53502 04973 /2102 11126 21184 39083 40346 57004 60002 700// 333
10016 21141 3/118 54415 58045 60001 70000 90720 91103=
AAXX 05211
53513 04980 /1201 11122 21154 39063 40342 57004 60002 700// 333
10018 21125 3/117 54415 58058 60001 70000 90720 91104=
AAXX 05211
53529 04980 /3600 11166 21206 38688 40367 57003 60002 700// 333
10002 21166 3/119 54410 58060 60001 70000 90720 91107=
AAXX 05211
53543 04980 /3600 11107 21193 38587 40343 57005 60002 700// 333
11034 21107 3/116 54415 58072 60001 70000 90720 91108=
AAXX 05211
53564 04980 /1101 11138 21201 39073 40355 52001 60002 700// 333
10007 21143 3/119 54416 58088 60001 70000 90720 91108=
AAXX 05211
53614 04975 /3601 11080 21146 38989 40332 57004 60002 700// 333
10031 21082 3/114 54417 58066 60001 70000 90720 91104=
AAXX 05211
53772 04980 /1101 11086 21187 39361 40317 52007 60002 700// 333
10062 21086 3/113 54415 58083 60001 70000 90720 91109=
AAXX 05211
53798 04980 /1700 10004 21164 30056 40286 52006 60002 700// 333
10121 20000 3/109 54415 58098 60001 70000 90720 91108=
AAXX 05211
53845 04980 /0600 11111 21166 38913 40341 52001 60002 700// 333
10042 21111 3/112 54415 58071 60001 70000 90720 91109=
AAXX 05211
53915 04969 /2803 11070 21137 38589 40298 57005 60002 700// 333
10090 21071 3/111 54415 58042 60001 70000 90720 91107=
AAXX 05211
54012 04971 /2702 11157 21191 39016 40286 57006 60002 770// 333
11124 21251 3/114 4/004 54408 58039 60001 70000 90720 91110=
AAXX 05211
54094 04964 /1401 11211 21235 39807 40215 57005 60002 700// 333
11083 21215 3/107 54415 58002 60001 70000 90720 91103=
AAXX 05211
54102 04980 /2302 11136 21179 39037 40296 57008 60002 770// 333
11089 21220 3/112 4/004 54405 58059 60001 70000 90720 91106=
AAXX 05211
54135 04957 /2201 11183 21213 39997 40232 57012 60002 700// 333
11092 21190 3/120 54415 58028 60001 70000 90720 91104=
AAXX 05211
54161 04940 /2600 11207 21230 39914 40232 57007 60002 705// 333
11075 21208 3/112 54410 58029 60001 70000 90720 91107=
AAXX 05211
54218 04980 /3402 11122 21205 39428 40261 57007 60002 700// 333
11028 21125 3/119 54415 58060 60001 70000 90720 91106=
AAXX 05211
54292 04950 /3401 11099 21110 39853 40188 57003 69942 705// 333
11065 21166 3/111 54407 59016 69921 70009 90720 91103=
AAXX 05211
54337 04977 /1901 11098 21167 30163 40251 57002 60002 700// 333
10004 21098 3/115 54415 58079 60001 70000 90720 91109=
AAXX 05211
54342 04961 /1301 11155 21182 30169 40237 57003 60002 700// 333
11002 21155 3/112 54412 58074 60001 70000 90720 91109=
AAXX 05211
54374 04932 /3600 11097 21097 39707 40197 57001 69922 710// 333
11047 21122 3/103 54405 59015 69911 70016 90720 91101=
AAXX 05211
54401 04980 /3203 11095 21175 39350 40320 57001 60002 700// 333
11003 21095 3/114 54415 58097 60001 70000 90720 91112=
AAXX 05211
54423 04979 /0900 11085 21178 39737 40273 57003 60002 700// 333
10028 21121 3/115 54405 58075 60001 70000 90720 91110=
AAXX 05211
54497 04958 /3505 11058 21136 30171 40190 52003 60002 700// 333
10027 21058 3/108 54415 58010 60001 70000 90720 91111=
AAXX 05211
54511 04980 /0403 11004 21147 30233 40276 57001 60002 700// 333
10083 21041 3/110 54405 58107 60001 70000 90720 91111=
AAXX 05211
54539 04961 /3600 11047 21086 30242 40254 57001 60002 700// 333
10071 21047 3/109 54415 58084 60001 70000 90720 91107=
AAXX 05211
54602 04980 /2601 11024 21151 30258 40281 52004 60002 700// 333
10107 21061 3/107 54405 58107 60001 70000 90720 91112=
AAXX 05211
54662 04980 /3506 11052 21140 30115 40234 52006 60002 700// 333
10078 21052 3/105 54418 58056 60001 70000 90720 91114=
AAXX 05211
54776 04972 /3312 10003 21055 30144 40206 52007 60002 700// 333
10077 20003 3/102 54415 58016 60001 70000 90720 91119=
AAXX 05211
54823 04980 /0503 11009 21144 30059 40274 52005 60002 700// 333
10095 21009 3/104 54415 58086 60001 70000 90720 91109=
AAXX 05211
54857 04950 /3405 10006 21039 30144 40241 52012 60002 705// 333
10102 20005 3/103 54415 58043 60001 70000 90720 91109=
AAXX 05211
56033 04979 /1800 11124 21227 36017 40180 57009 60002 700// 333
10007 21221 3/120 54408 59031 60001 70000 90720 91112=
AAXX 05211
56046 04972 /0901 11129 21229 36265 40208 57004 60002 700// 333
10034 21226 3/118 54408 59034 60001 70000 90720 91113=
AAXX 05211
56080 04963 /2802 11141 21181 37149 40244 57005 60002 700// 333
10075 21187 3/117 54405 59010 60001 70000 90720 91107=
AAXX 05211
56096 04978 /0502 10008 21087 38997 40261 57001 60002 700// 333
10116 21017 3/105 54405 58005 60001 70000 90720 91104=
AAXX 05211
56172 04980 /1001 11062 21140 37365 40215 52004 60002 700// 333
10101 21099 3/108 54405 59046 60001 70000 90720 91102=
AAXX 05211
56187 04910 /3501 10008 20004 39571 40233 57009 60002 710// 333
10126 21008 3/001 5001/ 59022 60001 70000 90720 91108=
AAXX 05211
56492 04971 /3600 10079 20037 39626 40226 57007 60002 700// 333
10134 20056 3/007 5000/ 54405 59019 60001 70000 90720 91106=
AAXX 05211
56691 04941 /1000 10009 20000 37771 40159 57001 60002 710// 333
10136 21035 3/103 5000/ 54405 59056 60001 70000 90720 91110=
AAXX 05211
57067 04968 /0801 11043 21103 39492 40294 57002 60002 700// 333
10132 21063 3/105 54405 58048 60001 70000 90720 91107=
AAXX 05211
57083 04974 /3602 10046 21148 30145 40283 52021 60002 700// 333
10138 21014 3/101 54405 58079 60001 70000 90720 91111=
AAXX 05211
57127 04925 /1101 11016 21016 39649 40278 52003 60002 710// 333
10037 21027 3/104 5000/ 59011 60001 70000 90720 91102=
AAXX 05211
57178 04966 /0803 10034 21092 30043 40267 52007 60002 700// 333
10149 21030 3/103 54405 58042 60001 70000 90720 91106=
AAXX 05211
57237 04961 /3401 10006 21008 39434 40242 57004 60002 700// 333
10136 21001 3/101 5001/ 54405 59048 60001 70000 90720 91103=
AAXX 05211
57245 04960 /2701 10010 20007 39911 40271 52001 60002 700// 333
10101 20001 3/104 5000/ 59010 60001 70000 90720 91104=
AAXX 05211
57290 04958 /2902 11010 21101 30133 40268 52008 60002 700// 333
10151 21012 3/105 54416 58049 60001 70000 90720 91106=
AAXX 05211
57297 04950 /3600 10029 20013 30119 40262 52005 60002 710// 333
10155 20028 3/102 54415 58033 60001 70000 90720 91105=
AAXX 05211
57328 04958 /0702 10054 20034 39801 40219 57006 60002 700// 333
10131 20041 3/002 5001/ 54405 59057 60001 70000 90720 91105=
AAXX 05211
57411 04937 /1001 10049 20042 39798 40220 57003 60002 705// 333
10119 20024 3/003 5000/ 54405 59042 60001 70000 90720 91105=
AAXX 05211
57447 04921 /1101 10039 20039 39707 40261 57004 60002 710// 333
10086 20031 3/002 5001/ 54415 59025 60001 70000 90720 91102=
AAXX 05211
57461 04961 /3001 10055 20030 39935 40248 54000 60002 700// 333
10167 20016 3/003 5000/ 54405 58001 60001 70000 90720 91106=
AAXX 05211
57494 04900 /0000 11010 21016 30227 40258 52005 60002 745// 333
10117 21010 3/100 5000/ 54415 58003 60001 70000 90720 91102=
AAXX 05211
57516 04939 /2501 10082 20060 39904 40218 57003 60002 705// 333
10157 20082 3/005 5000/ 54415 59041 60001 70000 90720 91107=
AAXX 05211
57662 04950 /0802 10059 20025 30056 40242 54000 60002 705// 333
10150 20020 3/001 5000/ 54405 59021 60001 70000 90720 91107=
AAXX 05211
57799 04920 /3001 10044 20027 30161 40250 52008 60002 710// 333
10157 20044 3/003 5000/ 54415 58000 60001 70000 90720 91103=
AAXX 05211
57816 04961 /1003 10056 20002 38803 40194 52001 60002 700// 333
10152 20032 3/001 5000/ 54405 59054 60001 70000 90720 91106=
AAXX 05211
57957 04956 /0302 10098 20012 30018 40217 57006 60002 705// 333
10200 20097 3/005 5002/ 54415 59025 60001 70000 90720 91106=
AAXX 05211
57972 04957 /3000 10045 20010 39799 40248 52007 60002 700// 333
10130 20045 3/102 5000/ 54415 59018 60001 70000 90720 91106=
AAXX 05211
57993 04962 /0601 10049 20026 30071 40241 52003 60002 700// 333
10173 20049 3/001 5001/ 54415 58003 60001 70000 90720 91104=
AAXX 05211
58027 04956 /2802 10028 21069 30203 40256 52010 60002 706// 333
10123 21012 3/101 5001/ 58052 60001 70000 90720 91107=
AAXX 05211
58040 04935 /2702 10005 21053 30238 40246 52010 60002 705// 333
10112 21012 3/104 5000/ 54415 58039 60001 70000 90720 91105=
AAXX 05211
58150 04949 /3102 10027 21022 30233 40237 52012 60002 705// 333
10132 21001 3/103 5000/ 58020 60001 70000 90720 91109=
AAXX 05211
58203 04945 /2801 11002 21018 30215 40256 52011 60002 705// 333
10150 21008 3/105 54415 58033 60001 70000 90720 91105=
AAXX 05211
58238 04958 /3401 10037 21025 30199 40242 52006 60002 700// 333
10144 20037 3/103 5000/ 54415 58007 60001 70000 90720 91104=
AAXX 05211
58362 04956 /3002 10064 20017 30217 40227 52007 60002 705// 333
10125 20034 3/002 5001/ 54415 59009 60001 70000 90720 91105=
AAXX 05211
58424 04918 /2502 10023 20010 30169 40248 52003 60002 710// 333
10142 20023 3/101 54415 58006 60001 70000 90720 91107=
AAXX 05211
58457 04927 /2002 10043 20036 30179 40233 52003 60002 705// 333
10145 20042 3/000 5001/ 54415 59008 60001 70000 90720 91103=
AAXX 05211
58527 04957 /0102 10021 20015 30132 40249 54000 60002 710// 333
10153 20021 3/000 5000/ 54415 58012 60001 70000 90720 91104=
AAXX 05211
58606 04931 /0401 10058 20036 30185 40245 52001 60002 710// 333
10149 20058 3/001 5000/ 54415 58003 60001 70000 90720 91102=
AAXX 05211
58633 04935 /3101 10045 20019 30140 40243 52002 60002 705// 333
10159 20045 3/002 5002/ 54415 58001 60001 70000 90720 91107=
AAXX 05211
58666 04938 /3203 10082 20068 30112 40223 54000 60002 705// 333
10108 20082 3/004 5000/ 54415 59007 60001 70023 90720 91109=
AAXX 05211
58725 04929 /3300 10029 20010 39789 40240 57001 60002 705// 333
10155 20027 3/101 5000/ 54415 58000 60001 70000 90720 91106=
AAXX 05211
58847 04966 /2501 10090 20056 30113 40216 57003 60002 700// 333
10206 20084 3/003 5000/ 54415 59002 60001 70000 90720 91108=
AAXX 05211
58968 45/// /2101 10152 20120 30164 40201 55001=
AAXX 05211
59023 04960 /2501 10089 20041 39890 40202 57005 60002 700// 333
10203 20089 3/006 5002/ 54416 59043 60001 70000 90720 91104=
AAXX 05211
59096 04963 /1901 10065 20031 39882 40224 54000 60002 700// 333
10206 20062 3/004 5000/ 54415 58003 60001 70000 90720 91109=
AAXX 05211
59134 04958 /1402 10122 20098 30029 40197 57006 60002 700// 333
10206 20121 3/008 5001/ 54415 59008 60001 70000 90720 91106=
AAXX 05211
59158 45/// /0203 10158 20120 30078 40180 55005=
AAXX 05211
59211 04956 /3601 10103 20092 39979 40188 57004 60002 705// 333
10224 20103 3/009 5001/ 54416 59048 60001 70000 90720 91103=
AAXX 05211
59265 04932 /0502 10081 20057 30062 40202 57008 60002 705// 333
10200 20080 3/007 5000/ 54415 59018 60001 70000 90720 91104=
AAXX 05211
59287 04980 /3601 10110 20051 30114 40200 57003 60002 700// 333
10231 20103 3/006 5002/ 54415 59006 60001 70000 90720 91105=
AAXX 05211
59316 04968 /1901 10132 20058 30188 40192 57007 60002 700// 333
10227 20132 3/010 5001/ 54415 59014 60001 70000 90720 91103=
AAXX 05211
59358 45/// /0108 10160 20133 30143 40175 54000=
AAXX 05211
59431 04958 /1102 10119 20037 30005 40188 57008 60002 700// 333
10218 20119 3/010 5002/ 54415 59038 60001 70000 90720 91107=
AAXX 05211
59501 04980 /0902 10145 20047 30166 40187 57005 60002 700// 333
10222 20145 3/010 5002/ 54415 59014 60001 70000 90720 91105=
AAXX 05211
59559 45/// /1801 10186 20174 30131 40160 50002=
AAXX 05211
59663 04962 /0302 10143 20051 30082 40191 57001 60002 700// 333
10230 20140 3/011 5001/ 54415 59006 60001 70000 90720 91107=
AAXX 05211
98223 32460 70904 10220 20215 40124 53005 81270 333
56990 81818 87360 =
AAXX 05211
98429 32560 13302 10253 20217 40109 55001 81100 333
56900 81825 =
