AAXX 28031
24944 41999 80602 11306 21337 39899 40224 57009 72272 82037 333
21313=
AAXX 28031
24959 41/92 90000 11398 21436 30078 40225 57004 74844=
AAXX 28031
24966 41996 00000 11433 21474 39970 40224 58002 71000=
AAXX 28031
25913 42999 11005 11183 21297 39870 40025 57018 81030=
AAXX 28031
29698 42699 80401 11176 21200 39644 40186 57016 82401 333 21193=
AAXX 28031
30054 41597 80000 11173 21199 39922 40175 57008 77187 84547 333
21174=
AAXX 28031
30230 42599 80000 11112 21138 39829 40165 57017 85931 333 21112=
AAXX 28031
30309 42999 80000 11108 21127 39630 40163 57013 8802/=
AAXX 28031
30372 42999 30000 11343 21383 39307 40294 57010 80001 333 21395=
AAXX 28031
30521 42999 80602 11163 21191 39667 40219 57016 8802/=
AAXX 28031
30554 42698 80000 11271 21301 39090 40278 57010 83531=
AAXX 28031
30635 42597 61203 11151 21188 39617 40218 57011 81932 333 21153=
AAXX 28031
30673 42999 40000 11252 21283 39329 40265 57007 80009 333 21290=
AAXX 28031
30710 41534 83601 11153 21162 39606 40218 57002 78581 889// 333
21162=
AAXX 28031
30758 41995 80000 11225 21255 39385 40275 57005 77111 85075 333
21264=
AAXX 28031
30935 42999 30000 11229 21248 39294 40314 58008 80001 333 21262=
AAXX 28031
30965 42998 20502 11243 21271 39391 40297 57003 80002 333 21325=
AAXX 28031
31004 41997 81901 11258 21285 39323 40231 57005 77172 83037=
AAXX 28031
31088 42999 23604 11227 21292 30051 40059 57012 80001=
AAXX 28031
31168 42999 01902 11173 21314 30085 40096 57006=
AAXX 28031
31300 42/// /0203 11144 21250 39851 40154 50001=
AAXX 28031
31329 42999 70000 11341 21380 39451 40206 58008 84033=
AAXX 28031
31369 42599 62906 11192 21249 30019 40080 57007 83570=
AAXX 28031
31510 41970 83103 11142 21205 39935 40159 52001 77171 80008=
AAXX 28031
31538 42999 22701 11262 21314 39687 40164 57012 80001=
AAXX 28031
31707 42599 82601 11169 21227 30052 40149 57008 83571=
AAXX 28031
31735 41959 31101 11208 21250 30046 40139 57005 70400 80001=
AAXX 28031
31873 42998 22303 11145 21200 30026 40161 57007 80001=
AAXX 28031
31909 42999 03207 11094 21204 30026 40096 57012 333 91012 91116=
AAXX 28031
31959 42598 52805 11092 21221 30069 40104 57010 82532 333 91010
91113=
AAXX 28031
31960 42999 13202 11093 21190 39922 40168 57012 81040=
AAXX 28031
32061 41595 83306 11131 21153 30028 40069 52004 78583 889// 333 91009
91114=
AAXX 28031
32098 41998 43506 11092 21152 30002 40014 52005 73631 80001 333 91009
91115=
AAXX 28031
32150 42698 83603 11041 21123 39984 40013 52007 81501 333 91007
91107=
AAXX 28031
32165 41596 634// 11022 21036 39907 49965 52007 78583 86900 333
91123=
AAXX 28031
32215 41596 72608 11018 21036 39699 49728 57037 78583 87900 333 91015
91115=
AAXX 28031
32389 41595 82804 11100 21113 39824 49861 57034 77373 8802/ 333
92982=
AAXX 28031
32477 42998 70204 11031 21105 39743 49775 57021 87070=
AAXX 28031
32594 81396 83507 11027 21037 39700 49735 57014 78583 889// 333
91112=
AAXX 28031
32618 81395 80612 10001 21003 39747 49769 57061 78583 889// 333 91018
91119 92982=
AAXX 28031
36096 41993 80000 11283 21315 39545 40414 57013 74622 8807/ 333
95090=
AAXX 28030
44212 32999 60000 11308 21351 39206 40510 57008 84079
333 91201=
AAXX 28030
44218 31996 42901 11299 21334 38618 40498 57011 70422
84080 333 91202=
AAXX 28030
44231 31998 70701 11269 21300 38701 40403 57017 70422
82048 333 91202=
AAXX 28030
44239 32999 70000 11173 21232 38753 40287 57021 87070
333 91202=
AAXX 28030
44241 32999 51902 11258 21291 39240 40331 57018 85040
333 91202=
AAXX 28030
44259 32997 12604 11115 21162 39315 40271 58007 80004
333 91204=
AAXX 28030
44272 32999 72001 11188 21258 38205 40398 57007 85078
333 91204=
AAXX 28030
44277 32699 72801 11094 21242 37792 40330 57006 85570
333 91202=
AAXX 28030
44282 31998 73501 11115 21227 38254 40293 57014 70411
87070 333 91203=
AAXX 28030
44288 32899 30000 11105 21277 38135 40263 57015 82031
333 91202=
AAXX 28030
44292 31997 21102 11176 21237 38687 40312 57015 70400
80004 333 91203=
AAXX 28030
44341 32999 41101 11186 21258 38589 40353 58015 80008
333 91201=
AAXX 28030
44354 32999 01302 11163 21239 39137 40349 57013 333
91203=
AAXX 28030
44373 32999 31102 11114 21256 38542 40347 57011 80004
333 91203=
AAXX  28031
45007 42962 03507 10179 20015 30261 40270 58001  333 
58027 =
AAXX 28031
47003 32980 83203 11035 21185 30174 40178 58007 82032 222// 1//00=
AAXX 28031
47005 21460 71803 11182 21204 38529 4//// 52001 770// 87500 333
69907=
AAXX 28031
47008 32967 02702 10004 21122 30114 40165 58006 222// 1//00=
AAXX 28031
47014 32965 00000 11140 21163 39836 40265 52003=
AAXX 28031
47016 32970 00000 11139 21187 39329 40235 58010=
AAXX 28031
47020 32970 00000 11113 21164 39865 40333 57012=
AAXX 28031
47022 32970 00000 11101 21178 38763 4//// 57009=
AAXX 28031
47025 32968 00000 10019 21122 30137 40166 57004 222// 1//00=
AAXX 28031
47028 32970 00000 11078 21157 30179 40269 58008=
AAXX 28031
47031 32970 00000 11123 21204 38890 4//// 58001=
AAXX 28031
47035 32970 00901 11052 21138 30258 40266 57003=
AAXX 28031
47037 32970 01401 11043 21094 30106 40235 52020=
AAXX 28031
47039 32970 00000 11078 21127 30053 40254 57010=
AAXX 28031
47041 32970 03205 11003 21144 30144 40172 58007=
AAXX 28031
47046 32969 02302 11001 21098 30159 40182 51001 222// 1//00=
AAXX 28031
47050 32965 00000 11043 21094 3//// 4//// 5////=
AAXX 28031
47052 32965 03205 11060 21112 39896 40250 57007=
AAXX 28031
47055 32970 02707 11013 21157 30163 40210 52005=
AAXX 28031
47058 32960 03203 11037 21127 30218 40265 51007=
AAXX 28031
47060 32968 03203 11020 21071 30200 40260 51003=
AAXX 28031
47061 32980 02302 10009 21122 30138 40180 52003 222// 1//00=
AAXX 28031
47065 32970 03203 11028 21094 30196 40264 53011=
AAXX 28031
47067 32960 03204 11032 21132 3//// 4//// 5////=
AAXX 28031
47068 32570 63203 11008 21044 30217 40256 56005 86400=
AAXX 28031
47069 32560 53605 11005 21094 30154 40255 51001 85400=
AAXX 28031
47070 32970 02705 11030 21160 30171 40261 52004=
AAXX 28031
47075 32980 02705 11061 21138 39800 40242 50000=
AAXX 28034
47090 36984 02505 10019 21181 30174 40196 58008=
AAXX 28034
47095 36984 02504 11042 21170 30059 40259 58010 333 4/002=
AAXX 28034
47100 36984 02713 11079 21180 39270 40229 57018 333 4/002=
AAXX 28034
47101 32984 02003 11016 21177 30143 40240 58012=
AAXX 28034
47102 32684 63212 10010 30204 40250 54000 86500=
AAXX 28034
47104 32982 01102 10015 21190 30097 40192 58010=
AAXX 28034
47105 36984 02308 10010 21159 30164 40198 58011=
AAXX 28034
47106 36984 02709 10020 21199 30147 40198 58011=
AAXX 28034
47108 32981 02905 11017 21138 30136 40245 58006=
AAXX 28034
47112 32982 03206 11021 21130 30167 40255 58003=
AAXX 28034
47114 36984 02504 11019 21172 30059 40250 58006=
AAXX 28034
47115 41584 61103 10014 21023 39903 40178 58004 72272 86500 333
4/018 60025=
AAXX 28034
47119 32684 12906 11013 21141 30205 40256 58005 81500=
AAXX 28034
47121 36984 02706 11024 21193 39934 40238 58014=
AAXX 28034
47127 36981 02507 11020 21147 30102 40249 58006=
AAXX 28034
47129 36575 63204 11005 21071 30229 40261 58003 333 4////=
AAXX 28034
47130 36983 02506 10030 21178 30138 40199 58007=
AAXX 28034
47131 32682 32504 11019 21114 30182 40257 58007 83500=
AAXX 28034
47133 32781 22904 11005 21107 30172 40258 58008 82500=
AAXX 28034
47135 36573 32513 11025 21110 39938 40248 58010=
AAXX 28034
47136 32984 02909 11002 21169 30063 40242 57011=
AAXX 28034
47138 32982 02909 10017 21153 30210 40215 58009=
AAXX 28034
47140 36573 61803 10004 21052 30233 40269 58004 333 4/001=
AAXX 28034
47143 32981 02909 10011 21116 30167 40236 58006=
AAXX 28034
47146 32672 13403 11006 21074 30185 40262 58003 81500 333 4/002=
AAXX 28034
47152 32981 03213 10013 21132 30109 40211 58009=
AAXX 28034
47154 36784 23205 10012 21119 30185 40247 58003=
AAXX 28034
47155 32783 12505 10045 21104 30184 40228 58008 81500=
AAXX 28034
47156 41568 63602 10005 21034 30172 40261 58003 72272 86500 333
4/006 69905=
AAXX 28034
47159 32682 12708 10030 21110 30136 40223 58010 81500=
AAXX 28034
47162 36981 23609 10037 21093 30191 40230 58007=
AAXX 28034
47165 41575 63216 10010 21004 30207 40264 50004 78587 86800 333
69905=
AAXX 28034
47168 31679 23412 10019 21071 30164 40247 50001 70171 82500 333
69905=
AAXX 28034
47169 41584 63216 10028 21011 30171 40265 58002 72682 86500 333
69975=
AAXX 28034
47170 36682 53407 10033 21032 30212 40256 54000=
AAXX 28034
47184 41584 72913 10059 21032 30231 40257 54000 76086 86830 333
69905=
AAXX 28034
47185 36682 73234 10058 21013 30163 40252 58005 333 69905=
AAXX 28034
47189 41584 33206 10072 21048 30186 40250 58008 72162 83500 333
69905=
AAXX 28034
47192 36984 03205 10039 21098 30201 40238 58005=
AAXX 28034
47401 47/67 /3521 11022 21077 30017 40032 50004 70070=
AAXX 28034
47402 47/61 /3009 11025 21067 30013 40024 50004 77170 555 19036=
AAXX 28034
47404 47/70 /0505 11027 21057 30025 40037 50003 77170 555 19046=
AAXX 28034
47405 45/70 /2810 11018 21083 30002 40022 54000 555 19018=
AAXX 28034
47406 47/31 /1108 11047 21059 30008 40040 51002 77170 555 19026=
AAXX 28034
47407 47/70 /1607 11047 21073 39869 40046 50000 77170=
AAXX 28034
47409 45/70 /2915 11018 21101 39961 40016 51009=
AAXX 28034
47411 45/70 /2311 11028 21101 30022 40055 58006 555 19028=
AAXX 28034
47412 45/70 /3308 11009 21119 30015 40048 58007=
AAXX 28034
47413 47/56 /1904 11040 21078 39987 40052 58005 77177 555 19102=
AAXX 28034
47417 45/70 /3013 11006 21119 39965 40020 58002=
AAXX 28034
47418 45/70 /2503 11009 21119 39966 40016 58001=
AAXX 28034
47420 45/70 /3016 10003 21094 39962 49996 50006=
AAXX 28034
47421 47/20 /2704 11036 21084 30027 40072 51002 77170=
AAXX 28034
47423 47/70 /3209 11028 21095 30001 40064 58001 70070=
AAXX 28034
47424 45/70 /3505 11008 21140 30041 40051 58009=
AAXX 28034
47426 45/70 /3014 11015 21108 39996 40044 58003=
AAXX 28034
47428 47/70 /3213 11024 21075 30063 40078 58001 77170 555 19010=
AAXX 28034
47430 45/70 /2808 11024 21091 30014 40069 58005=
AAXX 28034
47433 47/70 /1703 11049 21085 39827 40064 58001 77170 555 19134=
AAXX 28034
47435 45/70 /2809 11010 21098 39998 40020 53001 555 19006=
AAXX 28034
47440 45/70 /2605 10000 21147 39979 40022 58002=
AAXX 28034
47512 45/70 /3311 10041 21068 30017 40064 58008=
AAXX 28034
47520 47/70 /3010 10025 21040 39973 40099 58008 77170 555 19021=
AAXX 28034
47570 47/70 /2304 10016 21003 39850 40114 58005 76776=
AAXX 28034
47574 47/18 /2911 11010 21038 30005 40090 58004 77170 555 19024=
AAXX 28034
47575 47/70 /2507 11006 21031 30073 40078 58003 72470=
AAXX 28034
47576 45/70 /2806 10003 21097 30058 40064 58004 555 19012=
AAXX 28034
47581 47/70 /3116 11002 21039 30030 40066 58006 77170 555 19007=
AAXX 28034
47582 47/68 /3013 10012 21035 30068 40095 58003 77170=
AAXX 28034
47584 45/70 /2213 10020 21056 39883 40075 58007=
AAXX 28034
47585 45/70 /2503 10040 21090 30003 40061 58011=
AAXX 28034
47587 47/70 /3011 10032 21040 30099 40105 58008 70070=
AAXX 28034
47588 47/70 /2905 10028 21031 39914 40104 58009 72470 555 19003=
AAXX 28034
47590 45/70 /3015 10050 21056 30031 40085 58009=
AAXX 28034
47592 45/70 /2919 10037 21057 30035 40088 58008=
AAXX 28034
47595 47/70 /2810 10040 21026 30018 40104 58006 72476=
AAXX 28034
47597 45/70 /3308 10053 21043 39661 40090 58012=
AAXX 28034
47598 45/70 /3014 10088 21066 30083 40089 58013=
AAXX 28034
47600 47/70 /3512 10045 21017 30120 40128 58004 76760=
AAXX 28034
47602 47/69 /3324 10047 21017 30108 40117 58004 70076=
AAXX 28034
47604 45/70 /3108 10044 21029 30111 40118 58003=
AAXX 28034
47605 47/69 /2008 10025 20010 30094 40136 50000 76766=
AAXX 28034
47606 47/65 /2304 10011 20008 30120 40136 58001 76760 555 19005=
AAXX 28034
47607 47/62 /2204 10016 20010 30115 40137 50000 76776 555 19010=
AAXX 28034
47610 47/60 /0802 10011 21005 39605 40117 58010 76776=
AAXX 28034
47612 47/13 /2003 10003 20003 30109 40127 58005 77376 555 19010=
AAXX 28034
47615 45/70 /0904 10076 21042 39924 40094 58020=
AAXX 28034
47616 47/70 /3405 10028 20012 30124 40146 50000 79096=
AAXX 28034
47617 47/16 /3303 10005 20000 39451 40132 58010 77176 555 19005=
AAXX 28034
47618 47/70 /2704 10017 21021 39374 40108 58013 77170=
AAXX 28034
47620 45/70 /2309 10028 21023 39202 40103 58010=
AAXX 28034
47622 47/70 /2406 10001 21029 38923 48387 58013 72470=
AAXX 28034
47624 47/70 /0103 10096 21047 39949 40086 58022 76160=
AAXX 28034
47626 45/70 /1603 10089 21024 30053 40092 58022=
AAXX 28034
47629 45/70 /0103 10089 21043 30054 40092 58020=
AAXX 28034
47631 47/70 /3309 10049 20028 30131 40146 58009 76160=
AAXX 28034
47632 47/70 /1503 10069 20001 30117 40138 58010 72360=
AAXX 28034
47636 45/70 /2805 10074 21026 30068 40137 58015=
AAXX 28034
47637 47/46 /2105 10013 21013 39492 40133 58008 77177=
AAXX 28034
47638 45/70 /2203 10073 21047 39755 40093 58026=
AAXX 28034
47639 46/// ///// 11227 21244 36204=
AAXX 28034
47640 45/70 /2407 10056 21083 39077 48395 58018=
AAXX 28034
47641 45/70 /2002 10068 21034 39804 40086 58025=
AAXX 28034
47648 45/70 /3208 10100 21040 30060 40094 58014=
AAXX 28034
47649 45/70 /2508 10062 21045 39954 40151 58013=
AAXX 28034
47651 45/70 /2913 10089 21057 30122 40144 58016=
AAXX 28034
47653 45/70 /2815 10093 21029 30129 40138 58014=
AAXX 28034
47654 45/70 /2711 10086 21042 30074 40132 58018=
AAXX 28034
47655 45/70 /2814 10085 21024 30067 40128 58018=
AAXX 28034
47656 45/70 /2309 10103 21030 30090 40109 58018=
AAXX 28034
47657 45/70 /2411 10109 21022 30074 40100 58022=
AAXX 28034
47662 42/82 11606 10099 21018 30063 40092 58020 81202=
AAXX 28034
47663 45/70 /2811 10101 21054 30127 40148 58017=
AAXX 28034
47666 45/70 /2818 10088 21013 30046 40111 58020=
AAXX 28034
47668 45/70 /2521 10087 21014 30009 40092 58011=
AAXX 28034
47670 45/70 /2403 10109 21025 30038 40089 58021=
AAXX 28034
47672 45/70 /2813 10093 21006 30087 40096 58016=
AAXX 28034
47674 45/70 /2706 10110 20001 30076 40092 58017=
AAXX 28034
47675 45/70 /2521 10100 20003 30010 40101 58016=
AAXX 28034
47677 45/70 /2816 10107 20013 30056 40104 58017=
AAXX 28034
47678 47/70 /2813 10110 20038 39937 40120 58018 72360=
AAXX 28034
47682 45/70 /2404 10094 21022 30089 40096 58016=
AAXX 28034
47684 45/70 /2706 10092 21033 30072 40141 58011=
AAXX 28034
47690 45/70 /2608 11029 21078 38596 48381 58010=
AAXX 28034
47740 47/70 /2709 10028 21003 30125 40160 58003 76776=
AAXX 28034
47741 47/70 /2619 10047 21019 30151 40179 58005 76760=
AAXX 28034
47742 47/70 /2708 10062 21029 30168 40173 58007 72360=
AAXX 28034
47744 47/70 /2610 10063 21026 30168 40178 58008 72360=
AAXX 28034
47746 47/70 /2406 10047 21001 30151 40171 58002 79096=
AAXX 28034
47747 47/70 /2708 10059 21013 30152 40159 58009 76160=
AAXX 28034
47750 47/70 /2712 10075 21017 30147 40152 58013 70060=
AAXX 28034
47754 47/67 /2907 10033 20009 30206 40211 50002 76176=
AAXX 28034
47755 45/70 /2713 10049 21039 30174 40200 50000=
AAXX 28034
47756 45/70 /3012 10065 21046 39986 40167 58012=
AAXX 28034
47759 45/70 /2804 10079 21033 30087 40151 58019=
AAXX 28034
47761 45/70 /2608 10067 21022 30032 40146 58014=
AAXX 28034
47762 47/70 /3215 10060 21014 30189 40213 50002 76160=
AAXX 28034
47765 47/70 /3107 10061 21043 30127 40194 58002 70060=
AAXX 28034
47766 47/70 /3010 10069 21036 30187 40193 50000 70060=
AAXX 28034
47767 47/70 /2708 10056 20000 30187 40191 50001 72360=
AAXX 28034
47768 45/70 /2921 10074 21047 30168 40177 58009=
AAXX 28034
47769 45/70 /2611 10078 21043 30115 40164 58013=
AAXX 28034
47770 45/70 /2512 10082 21039 30122 40160 58017=
AAXX 28034
47772 42/75 22210 10082 21039 30057 40158 58016 81132=
AAXX 28034
47776 47/70 /2910 10061 21027 30086 40173 58009 76760=
AAXX 28034
47777 47/70 /3117 10068 21052 30150 40173 58010 72360=
AAXX 28034
47778 47/70 /3312 10071 20010 30073 40158 58012 70060=
AAXX 28034
47780 45/70 /2410 10063 21044 30031 40158 58014=
AAXX 28034
47784 47/70 /3010 10055 21033 30182 40207 58002 72476=
AAXX 28034
47800 47/70 /3308 10045 21035 30221 40226 50000 70070=
AAXX 28034
47805 47/70 /3208 10051 20003 30156 40229 50002 76160=
AAXX 28034
47807 47/70 /3209 10066 21015 30204 40223 50000 76160=
AAXX 28034
47809 47/70 /3008 10066 21015 30171 40218 50001 76160=
AAXX 28034
47812 47/70 /3212 10062 21007 30222 40229 50002 76160=
AAXX 28034
47813 47/70 /3505 10055 20020 30185 40226 50001 72360=
AAXX 28034
47814 47/70 /2707 10066 20013 30112 40216 58005 72360=
AAXX 28034
47815 47/70 /2707 10077 20000 30187 40204 58004 76160=
AAXX 28034
47817 47/70 /3108 10067 20002 30185 40230 50001 76160=
AAXX 28034
47818 47/70 /2915 10018 21029 39403 40223 58002 72470=
AAXX 28034
47819 47/70 /3011 10087 21035 30170 40218 58005 70060=
AAXX 28034
47822 47/70 /2612 10091 21028 30169 40195 58012 70060=
AAXX 28034
47823 47/62 /3116 10066 20025 30175 40227 58003 76160=
AAXX 28034
47824 47/70 /2702 10053 20036 30039 40221 58002 76160=
AAXX 28034
47827 47/70 /3113 10094 20032 30176 40215 58004 76160=
AAXX 28034
47829 47/70 /0106 10069 20014 30021 40212 58004 70060=
AAXX 28034
47830 47/70 /2814 10097 21008 30182 40200 58008 72360=
AAXX 28034
47831 47/70 /3214 10106 20027 30175 40213 58001 76160=
AAXX 28034
47835 47/70 /3016 10113 21011 30181 40199 58009 70060=
AAXX 28034
47836 47/66 /3016 10110 20077 30162 40208 58008 76160=
AAXX 28034
47837 47/50 /3230 10093 20071 30163 40209 58002 76160=
AAXX 28034
47838 47/70 /2909 10088 20010 30207 40225 58002 72360=
AAXX 28034
47843 47/70 /3207 10069 21005 30199 40232 58006 76160=
AAXX 28034
47887 45/70 /3208 10067 21022 30152 40194 58001=
AAXX 28034
47890 47/70 /2910 10071 21006 30179 40186 58002 72360=
AAXX 28034
47891 45/70 /2912 10064 21035 30167 40180 58003=
AAXX 28034
47892 47/70 /3213 10066 20013 30183 40201 50000 76160=
AAXX 28034
47893 47/70 /2514 10092 21004 30165 40171 58016 70060=
AAXX 28034
47895 47/70 /2907 10065 20008 30170 40178 58010 76160=
AAXX 28034
47897 47/70 /2912 10073 20007 30178 40191 58005 76160=
AAXX 28034
47898 47/70 /2811 10094 21013 30146 40187 58008 70060=
AAXX 28034
47899 47/70 /3009 10082 20000 39935 40162 58013 70060=
AAXX 28034
47909 47/70 /0217 10142 20073 30207 40232 58004 76160=
AAXX 28034
47912 45/70 /0120 10172 20110 30215 40259 58001=
AAXX 28034
47917 45/67 /0208 10182 20118 30242 40256 50002=
AAXX 28034
47918 47/70 /0211 10180 20099 30236 40254 50003 70060=
AAXX 28034
47927 47/70 /0115 10173 20102 30201 40249 50000 70060=
AAXX 28034
47929 47/70 /3411 10174 20075 30244 40251 58003 70060=
AAXX 28034
47936 47/70 /3615 10168 20077 30212 40245 50003 70060=
AAXX 28034
47940 45/70 /3407 10170 20082 30233 40242 58002=
AAXX 28034
47942 47/80 /3314 10154 20084 30206 40241 50000 72360=
AAXX 28034
47945 47/67 /3507 10172 20141 30187 40212 58009 76166=
AAXX 28034
47971 45/69 /2013 10208 20130 30147 40157 58030=
AAXX 28034
47991 46/// /3304 10260 20194 30143 40153 56023=
AAXX 28031
50527 04973 /3401 11213 21238 39414 40280 52005 60002 70000 333
11198 21262 3/116 4/015 54405 59027 60001 70000 90720 91103=
AAXX 28031
50557 04073 03203 11137 21192 39863 40189 52001 60002 70070 333
11115 21238 3/107 4/023 54405 59022 60001 70000 90720 91106=
AAXX 28031
50603 04980 /2203 11135 21180 39532 40256 54000 60002 70000 333
11087 21187 3/117 4/002 54415 59038 60001 70000 90720 91110=
AAXX 28031
50774 04050 03301 11188 21227 39816 40175 57009 69902 77077 333
11122 21250 3/107 4/022 54415 59021 69901 79999 90720 91103=
AAXX 28031
50953 04927 /2603 11136 21172 30032 40187 52002 60002 77000 333
11114 21175 3/108 59038 60001 70000 90720 91105=
AAXX 28031
51076 04961 /3600 11148 21187 39455 40419 52006 60002 70000 333
11097 21193 3/105 4/010 54405 59049 60001 70000 90720 91103=
AAXX 28031
52203 04961 /1002 11133 21192 39485 40457 52016 60002 70000 333
11058 21189 3/123 59072 60001 70000 90720 91104=
AAXX 28031
52323 04980 /2409 11119 21234 38283 40429 52003 60002 70000 333
11062 21210 3/120 4/001 54409 59087 60001 70000 90720 91114=
AAXX 28031
52495 04980 /0601 11126 21200 38762 40419 57009 60002 70000 333
11085 21211 3/123 54405 59123 60001 70000 90720 91104=
AAXX 28031
52533 04966 /1001 11075 21191 38608 40401 52002 60002 70000 333
11037 21163 3/125 54405 59090 60001 70000 90720 91104=
AAXX 28031
52652 04979 /3405 11114 21180 38628 40421 52013 60002 70000 333
11007 21179 3/121 54415 59090 60001 70000 90720 91108=
AAXX 28031
52681 04956 /2301 11104 21179 38724 40401 57005 60002 70500 333
11058 21166 3/121 54405 59124 60001 70000 90720 91103=
AAXX 28031
52836 04979 /1602 11042 21286 36922 40313 57004 60002 70000 333
11037 21156 3/126 54405 59068 60001 70000 90720 91106=
AAXX 28031
52866 04957 /0802 11100 21182 37643 40415 57003 60002 70500 333
11046 21162 3/116 54405 59067 60001 70000 90720 91105=
AAXX 28031
52983 04960 /0201 11068 21137 38193 40432 57005 60002 70000 333
11048 21176 3/115 54405 59085 60001 70000 90720 91102=
AAXX 28031
53068 04980 /2406 11111 21229 39124 40339 57004 60002 70000 333
11083 21178 3/119 54405 59089 60001 70000 90720 91108=
AAXX 28031
53336 04977 /1803 11131 21205 38792 40401 57002 60002 70000 333
11063 21180 3/121 54415 59090 60001 70000 90720 91104=
AAXX 28031
53463 04979 /1002 11116 21214 38964 40417 57005 60002 70000 333
11056 21189 3/120 54415 59060 60001 70000 90720 91104=
AAXX 28031
53502 04972 /2204 11116 21186 39106 40410 57009 60002 70000 333
11067 21169 3/120 54405 59130 60001 70000 90720 91107=
AAXX 28031
53513 04980 /2503 11080 21195 39075 40375 57009 60002 70000 333
11058 21137 3/118 54405 59116 60001 70000 90720 91109=
AAXX 28031
53529 04980 /2203 11070 21183 38709 40405 57007 60002 70000 333
11068 21184 3/122 54405 59094 60001 70000 90720 91107=
AAXX 28031
53543 04980 /2102 11095 21212 38612 40394 57002 60002 70000 333
11080 21142 3/117 54405 59074 60001 70000 90720 91108=
AAXX 28031
53564 04977 /1105 11088 21197 39111 40414 57005 60002 70000 333
11044 21144 3/119 54405 59071 60001 70000 90720 91106=
AAXX 28031
53614 04963 /2202 11090 21173 39020 40410 57008 60002 70000 333
11032 21161 3/120 54415 59104 60001 70000 90720 91104=
AAXX 28031
53772 04972 /2602 11036 21187 39408 40381 57006 60002 70000 333
11004 21103 3/116 59043 60001 70000 90720 91106=
AAXX 28031
53798 04973 /1003 10051 21133 30086 40319 57006 60002 70000 333
10060 21018 3/108 54405 59053 60001 70000 90720 91107=
AAXX 28031
53845 04980 /1001 11077 21173 38954 40417 57011 60002 70000 333
11032 21168 3/114 54415 59075 60001 70000 90720 91103=
AAXX 28031
53915 04963 /0702 11054 21199 38633 40407 57004 60002 70000 333
11020 21141 3/117 54405 59090 60001 70000 90720 91104=
AAXX 28031
54012 04980 /2605 11145 21206 39037 40308 52005 60002 70000 333
11145 21181 3/112 4/004 54405 59056 60001 70000 90720 91114=
AAXX 28031
54094 04980 /2306 11107 21184 39775 40175 57017 60002 70000 333
11077 21143 3/105 59031 60001 70000 90720 91111=
AAXX 28031
54102 04980 /2104 11148 21216 39060 40337 57002 60002 70000 333
11138 21190 3/111 4/005 54405 59059 60001 70000 90720 91108=
AAXX 28031
54135 04980 /2906 11041 21166 39997 40224 57001 60002 70000 333
11041 21133 3/116 54405 59047 60001 70000 90720 91111=
AAXX 28031
54161 04962 /2503 11099 21164 39906 40218 54000 60002 70000 333
11090 21147 3/109 54405 59041 60001 70000 90720 91108=
AAXX 28031
54218 04980 /2705 11039 21206 39440 40267 54000 60002 70000 333
11039 21114 3/116 54405 59049 60001 70000 90720 91107=
AAXX 28031
54292 04980 /3008 11074 21217 39852 40187 57018 60002 70000 333
11070 21142 3/117 54405 59031 60001 70000 90720 91112=
AAXX 28031
54337 04980 /2403 11011 21161 30169 40256 57007 60002 70000 333
11011 21079 3/114 54405 59050 60001 70000 90720 91106=
AAXX 28031
54342 04978 /2303 11040 21159 30176 40243 57008 60002 70000 333
11040 21153 3/112 54405 59047 60001 70000 90720 91107=
AAXX 28031
54374 04961 /1001 11126 21190 39756 40259 57015 60002 70000 333
11067 21209 3/108 54415 59027 60001 70000 90720 91103=
AAXX 28031
54401 04974 /2803 11061 21209 39377 40352 57002 60002 70000 333
11056 21108 3/117 54405 59059 60001 70000 90720 91106=
AAXX 28031
54423 04966 /0401 11064 21181 39760 40304 57004 60002 70000 333
11037 21144 3/117 59055 60001 70000 90720 91103=
AAXX 28031
54497 04964 /2802 11037 21169 30239 40259 57008 60002 70000 333
11021 21137 3/117 54405 59026 60001 70000 90720 91104=
AAXX 28031
54511 04971 /1602 10033 21175 30254 40298 57005 60002 70000 333
10034 21080 3/114 54405 59071 60001 70000 90720 91106=
AAXX 28031
54539 04972 /2804 10023 21190 30271 40284 57009 60002 70000 333
10023 21073 3/110 54405 59049 60001 70000 90720 91109=
AAXX 28031
54602 04980 /2303 10037 21161 30281 40304 57010 60002 70000 333
10037 21080 3/109 54405 59069 60001 70000 90720 91106=
AAXX 28031
54662 04980 /3003 10018 21117 30148 40266 57009 60002 70000 333
10020 21041 3/106 54405 59036 60001 70000 90720 91109=
AAXX 28031
54776 04980 /3307 10019 21053 30217 40280 52001 69922 72200 333
10029 21025 3/000 59012 60001 70035 90720 91115=
AAXX 28031
54823 04975 /2303 10036 21167 30113 40332 57008 60002 70000 333
10038 21049 3/108 54405 59028 60001 70000 90720 91106=
AAXX 28031
54857 04969 /3203 10014 21127 30217 40316 57002 60002 70000 333
10027 21025 3/106 54405 59016 60001 70000 90720 91112=
AAXX 28031
56033 04961 /2202 11126 21262 36057 40420 52003 60002 70000 333
11039 21211 3/129 54405 59013 60001 70000 90720 91103=
AAXX 28031
56046 04959 /3601 11140 21259 36310 40439 52004 60002 70000 333
10011 21216 3/127 54415 59007 60001 70000 90720 91102=
AAXX 28031
56080 04956 /3301 11107 21191 37200 40448 57002 60002 70500 333
11012 21206 3/121 59030 60001 70000 90720 91102=
AAXX 28031
56096 04974 /1101 10005 21116 39082 40380 57010 60002 70000 333
10067 21036 3/108 54415 59047 60001 70000 90720 91105=
AAXX 28031
56172 04980 /2002 11017 21162 37419 40335 57001 60002 70000 333
10143 21094 3/110 59012 60001 70000 90720 91103=
AAXX 28031
56187 04919 /0402 10065 20045 39683 40352 52002 60002 70500 333
10094 20046 3/005 5000/ 54415 59009 60001 70000 90720 91103=
AAXX 28031
56492 04972 /1001 10086 20036 39731 40343 57004 60002 70000 333
10123 20067 3/007 5001/ 54415 59009 60001 70001 90720 91106=
AAXX 28031
56691 04956 /1703 11010 21021 37854 40350 57002 60002 71000 333
10017 21022 3/100 5000/ 54415 59008 60001 70000 90720 91107=
AAXX 28031
57067 04972 /1901 11020 21123 39569 40394 57012 60002 70000 333
10039 21091 3/108 54415 59039 60001 70000 90720 91105=
AAXX 28031
57083 04980 /2804 10049 21174 30206 40347 57010 60002 70000 333
10079 20011 3/102 54415 59022 60001 70000 90720 91111=
AAXX 28031
57127 04973 /1501 10027 21057 39749 40382 57006 60002 70000 333
10106 21041 3/106 5002/ 54415 59026 60001 70000 90720 91103=
AAXX 28031
57178 04966 /1202 10046 21119 30135 40365 57002 60002 70000 333
10100 21063 3/109 54415 59010 60001 70000 90720 91105=
AAXX 28031
57237 04958 /1201 10039 21051 39545 40370 57005 60002 70000 333
10089 21023 3/105 5000/ 54415 59007 60001 70000 90720 91102=
AAXX 28031
57245 04972 /0801 10011 21069 30019 40389 57007 60002 70000 333
10113 21039 3/107 5000/ 54415 59013 60001 70000 90720 91102=
AAXX 28031
57290 04959 /1302 10065 21168 30226 40363 57007 60002 70000 333
10097 21063 3/107 54405 59006 60001 70000 90720 91107=
AAXX 28031
57297 04976 /1202 10058 21127 30221 40368 57008 60002 70000 333
10100 21023 3/105 54405 58001 60001 70000 90720 91104=
AAXX 28031
57328 04959 /0401 10068 21009 39931 40359 52001 60002 70000 333
10126 20017 3/101 5000/ 59001 60001 70000 90720 91103=
AAXX 28031
57411 04964 /0202 10070 21017 39924 40354 57001 60002 70000 333
10114 20015 3/100 5000/ 59004 60001 70000 90720 91104=
AAXX 28031
57447 04957 /3201 10062 20003 39808 40369 57002 60002 70000 333
10101 20030 3/001 5001/ 54415 58013 60001 70000 90720 91102=
AAXX 28031
57461 04961 /2002 10062 21105 30053 40375 57009 60002 70000 333
10100 20015 3/103 5001/ 54415 58014 60001 70000 90720 91104=
AAXX 28031
57494 04967 /1301 10071 21126 30345 40376 57008 60002 70000 333
10100 21054 3/105 5005/ 54415 58030 60001 70000 90720 91107=
AAXX 28031
57516 04938 /0701 10107 20055 30025 40344 57003 60002 70500 333
10139 20072 3/004 5000/ 54405 59004 60001 70000 90720 91103=
AAXX 28031
57662 04960 /1203 10085 21099 30192 40382 52001 60002 70000 333
10114 20028 3/101 5002/ 54415 58031 60001 70000 90720 91106=
AAXX 28031
57799 04948 /0302 10097 21036 30266 40356 57001 60002 76050 333
10122 20053 3/003 5002/ 54415 58038 60001 70000 90720 91108=
AAXX 28031
57816 04934 /0702 10037 20011 38911 40352 54000 60002 70500 333
10062 20027 3/004 5001/ 54415 58003 60001 70000 90720 91105=
AAXX 28031
57957 04961 /0305 10118 21076 30134 40337 57002 60002 70000 333
10145 20089 3/006 5002/ 58028 60001 70000 90720 91111=
AAXX 28031
57972 04959 /3404 10079 21013 39898 40352 54000 60002 70000 333
10090 20052 3/004 5000/ 54405 58024 60001 70000 90720 91107=
AAXX 28031
57993 04967 /0702 10112 21037 30166 40337 57001 60002 70000 333
10129 20083 3/005 5002/ 54415 58036 60001 70000 90720 91108=
AAXX 28031
58027 04961 /2603 10040 21116 30296 40350 57005 60002 70000 333
10061 21038 3/102 5012/ 59004 60001 70000 90720 91106=
AAXX 28031
58040 04962 /2303 10032 21145 30332 40340 57002 60002 70000 333
10058 21033 3/106 5006/ 54415 59005 60001 70000 90720 91108=
AAXX 28031
58150 04969 /2804 10036 21137 30339 40343 52001 60002 70000 333
10070 21019 3/104 5007/ 54415 58006 60001 70000 90720 91108=
AAXX 28031
58203 04973 /3304 10052 21143 30321 40363 57007 60002 70000 333
10088 21058 3/108 58004 60001 70000 90720 91106=
AAXX 28031
58238 04970 /2903 10050 21155 30319 40363 57002 60002 70000 333
10094 21014 3/107 5001/ 54415 58021 60001 70000 90720 91108=
AAXX 28031
58362 04973 /3205 10045 21133 30341 40347 52002 60002 70000 333
10096 20008 3/102 5001/ 54415 58018 60001 70000 90720 91110=
AAXX 28031
58424 04960 /0604 10061 21106 30286 40366 57003 60002 70000 333
10094 21003 3/105 54415 58031 60001 70000 90720 91108=
AAXX 28031
58457 04968 /3203 10064 21132 30300 40355 57001 60002 70000 333
10103 20029 3/100 5001/ 54415 58026 60001 70000 90720 91110=
AAXX 28031
58527 04968 /0302 10080 21103 30241 40359 57001 60002 70000 333
10120 20018 3/101 5002/ 54415 58041 60001 70000 90720 91109=
AAXX 28031
58606 04960 /3603 10085 21077 30302 40363 54000 60002 70000 333
10115 20050 3/002 5000/ 54415 58043 60001 70000 90720 91108=
AAXX 28031
58633 04957 /1103 10087 21052 30245 40350 57002 60002 70000 333
10100 20023 3/000 5001/ 58030 60001 70000 90720 91106=
AAXX 28031
58666 04975 /3610 10072 21076 30207 40320 57007 60002 70000 333
10088 20062 3/004 5003/ 54415 58010 60001 70000 90720 91120=
AAXX 28031
58725 04960 /3104 10090 21085 39873 40327 57006 60002 70000 333
10122 20041 3/001 5004/ 54415 58031 60001 70000 90720 91109=
AAXX 28031
58847 04958 /1101 10149 20031 30194 40298 57004 60002 70000 333
10173 20104 3/008 5001/ 54415 58013 60001 70000 90720 91105=
AAXX 28031
58968 12680 80507 10148 20069 30250 40287 58003 60001 885// 333
70000=
AAXX 28031
59023 04961 /0902 10151 21028 30012 40328 52002 60002 70000 333
10158 20096 3/006 5002/ 54405 58024 60001 70000 90720 91106=
AAXX 28031
59096 04969 /0310 10118 21031 39964 40309 57008 60002 70000 333
10167 20074 3/006 5000/ 54415 58031 60001 70000 90720 91117=
AAXX 28031
59134 04962 /0804 10158 20036 30107 40277 57003 60002 70000 333
10187 20114 3/009 5002/ 54415 58013 60001 70000 90720 91110=
AAXX 28031
59158 12965 00107 10174 20077 30137 40240 58007 60001 333 70000=
AAXX 28031
59211 04966 /1802 10168 20054 30106 40319 52002 60002 70000 333
10173 20110 3/009 5000/ 54405 58016 60001 70000 90720 91104=
AAXX 28031
59265 04950 /0504 10136 20003 30165 40307 57005 60002 70500 333
10136 20093 3/007 5002/ 54405 58024 60001 70005 90720 91108=
AAXX 28031
59287 04980 /3503 10161 21010 30201 40288 57003 60002 70000 333
10223 20117 3/011 5002/ 54415 58035 60001 70000 90720 91115=
AAXX 28031
59316 04962 /1901 10180 20059 30267 40271 57001 60002 70000 333
10195 20145 3/014 5001/ 58017 60001 70000 90720 91105=
AAXX 28031
59358 12961 20111 10175 20104 30203 40235 58006 60001 82030 333
70000=
AAXX 28031
59431 04963 /0506 10148 21017 30123 40309 57001 60002 70000 333
10149 20117 3/013 5003/ 54405 58020 60001 70000 90720 91112=
AAXX 28031
59501 04966 /0204 10162 20045 30247 40269 57003 60002 70000 333
10215 20137 3/012 5002/ 54415 58021 60001 70000 90720 91110=
AAXX 28031
59559 12571 20417 10215 20147 30190 40219 50001 60001 82230 333
70000=
AAXX 28031
59663 04966 /0306 10172 20045 30160 40270 57003 60002 70000 333
10223 20136 3/014 5000/ 54415 58026 60001 70000 90720 91111=
AAXX 28031
98223 31460 60406 10275 20208 40155 58002 70522 82271
333 56999 82818 84360 91112 90401 91536 =
AAXX 28031
98429 21558 82802 10252 20244 40140 58006 76166 8352/
333 56990 60137 83623 88460 =
